{
  "type": "FeatureCollection",
  "features": [
    {
      "type": "Feature",
      "geometry": {
        "type": "Polygon",
        "coordinates": [
          [
            [
              -33.02317791430289,
              -6.229529852367941
            ],
            [
              -33.0201298959374,
              -6.229529852367941
            ],
            [
              -33.0201298959374,
              -6.228702907570062
            ],
            [
              -33.02317791430289,
              -6.228702907570062
            ],
            [
              -33.02317791430289,
              -6.229529852367941
            ]
          ]
        ]
      },
      "properties": {
        "detection_method": "yolo8",
        "confidence": 0.9027191400527954,
        "class": "ship-1",
        "bbox_pixel": [
          7432.089057922363,
          19223.39321899414,
          7463.320365905762,
          19239.9580078125
        ],
        "bbox_geo": [
          -33.02317791430289,
          -6.229529852367941,
          -33.0201298959374,
          -6.228702907570062
        ],
        "model": "SAR-MULTI-1280p",
        "class_id": 0,
        "class_name": "ship-1",
        "tile_id": 920,
        "land_mask_checked": true,
        "center_is_water": true,
        "bbox_water_fraction": 1.0,
        "land_mask_method": "natural_earth_land_point_mask",
        "id": 1,
        "source": "yolo",
        "centroid_lon": -33.021609794445546,
        "centroid_lat": -6.229126173747744,
        "score": 0.9027191400527954,
        "patch_id": 120,
        "patch_label": "P121"
      }
    },
    {
      "type": "Feature",
      "geometry": {
        "type": "Polygon",
        "coordinates": [
          [
            [
              -33.530259272424836,
              -5.61220638000325
            ],
            [
              -33.52699871883545,
              -5.61220638000325
            ],
            [
              -33.52699871883545,
              -5.611241261340588
            ],
            [
              -33.530259272424836,
              -5.611241261340588
            ],
            [
              -33.530259272424836,
              -5.61220638000325
            ]
          ]
        ]
      },
      "properties": {
        "detection_method": "yolo8",
        "confidence": 0.8761551976203918,
        "class": "ship-1",
        "bbox_pixel": [
          14375.76235961914,
          13853.213073730469,
          14408.757568359375,
          13871.731750488281
        ],
        "bbox_geo": [
          -33.530259272424836,
          -5.61220638000325,
          -33.52699871883545,
          -5.611241261340588
        ],
        "model": "SAR-MULTI-1280p",
        "class_id": 0,
        "class_name": "ship-1",
        "tile_id": 649,
        "land_mask_checked": true,
        "center_is_water": true,
        "bbox_water_fraction": 1.0,
        "land_mask_method": "natural_earth_land_point_mask",
        "id": 2,
        "source": "yolo",
        "centroid_lon": -33.528673047112626,
        "centroid_lat": -5.611714008040525,
        "score": 0.8761551976203918,
        "patch_id": 85,
        "patch_label": "P086"
      }
    },
    {
      "type": "Feature",
      "geometry": {
        "type": "Polygon",
        "coordinates": [
          [
            [
              -33.41877684613366,
              -5.984220572010938
            ],
            [
              -33.416474443935904,
              -5.984220572010938
            ],
            [
              -33.416474443935904,
              -5.983417509928875
            ],
            [
              -33.41877684613366,
              -5.983417509928875
            ],
            [
              -33.41877684613366,
              -5.984220572010938
            ]
          ]
        ]
      },
      "properties": {
        "detection_method": "yolo8",
        "confidence": 0.8717409372329712,
        "class": "ship-1",
        "bbox_pixel": [
          12298.708557128906,
          17551.85772705078,
          12321.578979492188,
          17565.854125976562
        ],
        "bbox_geo": [
          -33.41877684613366,
          -5.984220572010938,
          -33.416474443935904,
          -5.983417509928875
        ],
        "model": "SAR-MULTI-1280p",
        "class_id": 0,
        "class_name": "ship-1",
        "tile_id": 821,
        "land_mask_checked": true,
        "center_is_water": true,
        "bbox_water_fraction": 1.0,
        "land_mask_method": "natural_earth_land_point_mask",
        "id": 3,
        "source": "yolo",
        "centroid_lon": -33.417669725988766,
        "centroid_lat": -5.983809222550109,
        "score": 0.8717409372329712,
        "patch_id": 110,
        "patch_label": "P111"
      }
    },
    {
      "type": "Feature",
      "geometry": {
        "type": "Polygon",
        "coordinates": [
          [
            [
              -33.05192039172666,
              -6.080018436711888
            ],
            [
              -33.04596412813839,
              -6.080018436711888
            ],
            [
              -33.04596412813839,
              -6.076452333205674
            ],
            [
              -33.05192039172666,
              -6.076452333205674
            ],
            [
              -33.05192039172666,
              -6.080018436711888
            ]
          ]
        ]
      },
      "properties": {
        "detection_method": "yolo8",
        "confidence": 0.565213680267334,
        "class": "ship-1",
        "bbox_pixel": [
          8071.5877685546875,
          17664.0,
          8127.524230957031,
          17716.49840927124
        ],
        "bbox_geo": [
          -33.05192039172666,
          -6.080018436711888,
          -33.04596412813839,
          -6.076452333205674
        ],
        "model": "SAR-MULTI-1280p",
        "class_id": 0,
        "class_name": "ship-1",
        "tile_id": 850,
        "land_mask_checked": true,
        "center_is_water": true,
        "bbox_water_fraction": 1.0,
        "land_mask_method": "natural_earth_land_point_mask",
        "id": 4,
        "source": "yolo",
        "centroid_lon": -33.04894225214578,
        "centroid_lat": -6.078235392880383,
        "score": 0.565213680267334,
        "patch_id": 108,
        "patch_label": "P109"
      }
    },
    {
      "type": "Feature",
      "geometry": {
        "type": "Polygon",
        "coordinates": [
          [
            [
              -33.485253896003,
              -5.364383071086854
            ],
            [
              -33.48407982645057,
              -5.364383071086854
            ],
            [
              -33.48407982645057,
              -5.362389220933239
            ],
            [
              -33.485253896003,
              -5.362389220933239
            ],
            [
              -33.485253896003,
              -5.364383071086854
            ]
          ]
        ]
      },
      "properties": {
        "detection_method": "yolo8",
        "confidence": 0.44045236706733704,
        "class": "ship-1",
        "bbox_pixel": [
          14499.044006347656,
          11103.837261199951,
          14507.035888671875,
          11127.050903320312
        ],
        "bbox_geo": [
          -33.485253896003,
          -5.364383071086854,
          -33.48407982645057,
          -5.362389220933239
        ],
        "model": "SAR-MULTI-1280p",
        "class_id": 0,
        "class_name": "ship-1",
        "tile_id": 544,
        "land_mask_checked": true,
        "center_is_water": true,
        "bbox_water_fraction": 1.0,
        "land_mask_method": "natural_earth_land_point_mask",
        "id": 5,
        "source": "yolo",
        "centroid_lon": -33.48466686072227,
        "centroid_lat": -5.363386146596492,
        "score": 0.44045236706733704,
        "patch_id": 72,
        "patch_label": "P073"
      }
    },
    {
      "type": "Feature",
      "geometry": {
        "type": "Polygon",
        "coordinates": [
          [
            [
              -32.285788645889035,
              -5.572300028931222
            ],
            [
              -32.28070780792888,
              -5.572300028931222
            ],
            [
              -32.28070780792888,
              -5.566742971673804
            ],
            [
              -32.285788645889035,
              -5.566742971673804
            ],
            [
              -32.285788645889035,
              -5.572300028931222
            ]
          ]
        ]
      },
      "properties": {
        "detection_method": "yolo8",
        "confidence": 0.4289296567440033,
        "class": "ship-1",
        "bbox_pixel": [
          988.0475769042969,
          10443.509078979492,
          1030.1565551757812,
          10514.374938964844
        ],
        "bbox_geo": [
          -32.285788645889035,
          -5.572300028931222,
          -32.28070780792888,
          -5.566742971673804
        ],
        "model": "SAR-MULTI-1280p",
        "class_id": 0,
        "class_name": "ship-1",
        "tile_id": 491,
        "land_mask_checked": true,
        "center_is_water": true,
        "bbox_water_fraction": 1.0,
        "land_mask_method": "natural_earth_land_point_mask",
        "id": 6,
        "source": "yolo",
        "centroid_lon": -32.28323851152434,
        "centroid_lat": -5.569476631124702,
        "score": 0.4289296567440033,
        "patch_id": 65,
        "patch_label": "P066"
      }
    },
    {
      "type": "Feature",
      "geometry": {
        "type": "Polygon",
        "coordinates": [
          [
            [
              -32.45580942871924,
              -6.258578079123552
            ],
            [
              -32.44904124981565,
              -6.258578079123552
            ],
            [
              -32.44904124981565,
              -6.254244499399605
            ],
            [
              -32.45580942871924,
              -6.254244499399605
            ],
            [
              -32.45580942871924,
              -6.258578079123552
            ]
          ]
        ]
      },
      "properties": {
        "detection_method": "yolo8",
        "confidence": 0.2790878117084503,
        "class": "ship-1",
        "bbox_pixel": [
          1197.6558837890625,
          18149.726043701172,
          1260.9917602539062,
          18211.59442138672
        ],
        "bbox_geo": [
          -32.45580942871924,
          -6.258578079123552,
          -32.44904124981565,
          -6.254244499399605
        ],
        "model": "SAR-MULTI-1280p",
        "class_id": 0,
        "class_name": "ship-1",
        "tile_id": 841,
        "land_mask_checked": true,
        "center_is_water": true,
        "bbox_water_fraction": 1.0,
        "land_mask_method": "natural_earth_land_point_mask",
        "id": 7,
        "source": "yolo",
        "centroid_lon": -32.45246945066237,
        "centroid_lat": -6.256401557247366,
        "score": 0.2790878117084503,
        "patch_id": 104,
        "patch_label": "P105"
      }
    }
  ]
}