{"type":"FeatureCollection","name":"Grade de recortes SAR do produto 923","features":[{"type":"Feature","properties":{"patch_label":"P001","patch_number":1,"has_cfar_detection":false,"status":"processado_sem_deteccao","source_arquivo_id":923,"raster_width":2160,"raster_height":2160},"geometry":{"type":"Polygon","coordinates":[[[-46.86046569564717,2.813069660742925],[-47.05048486850953,2.8532816012454805],[-47.09073777998076,2.6593636653392014],[-46.9007578128012,2.619115540688227],[-46.86046569564717,2.813069660742925]]]}},{"type":"Feature","properties":{"patch_label":"P002","patch_number":2,"has_cfar_detection":false,"status":"processado_sem_deteccao","source_arquivo_id":923,"raster_width":2320,"raster_height":2160},"geometry":{"type":"Polygon","coordinates":[[[-47.02240840354289,2.8473419047764503],[-47.226521711665185,2.890504849586403],[-47.2667375489793,2.6966221727348474],[-47.06266701738267,2.6534184396921097],[-47.02240840354289,2.8473419047764503]]]}},{"type":"Feature","properties":{"patch_label":"P003","patch_number":3,"has_cfar_detection":false,"status":"processado_sem_deteccao","source_arquivo_id":923,"raster_width":2320,"raster_height":2160},"geometry":{"type":"Polygon","coordinates":[[[-47.19844194700866,2.8845705073658556],[-47.40256979635232,2.927699429457873],[-47.442749714652024,2.733854250585717],[-47.23866452535226,2.6906820042965243],[-47.19844194700866,2.8845705073658556]]]}},{"type":"Feature","properties":{"patch_label":"P004","patch_number":4,"has_cfar_detection":false,"status":"processado_sem_deteccao","source_arquivo_id":923,"raster_width":2320,"raster_height":2160},"geometry":{"type":"Polygon","coordinates":[[[-47.374490496822055,2.921768382482745],[-47.57862826033682,2.9648656371751834],[-47.618769783608286,2.771059399814297],[-47.414674972860574,2.727917095221753],[-47.374490496822055,2.921768382482745]]]}},{"type":"Feature","properties":{"patch_label":"P005","patch_number":5,"has_cfar_detection":true,"status":"com_deteccao_cfar","source_arquivo_id":923,"raster_width":2320,"raster_height":2160},"geometry":{"type":"Polygon","coordinates":[[[-47.550546490782,2.958940415338697],[-47.754700556076166,3.002003918743974],[-47.794804128752546,2.8082385382920485],[-47.590693173418806,2.765127801156631],[-47.550546490782,2.958940415338697]]]}},{"type":"Feature","properties":{"patch_label":"P006","patch_number":6,"has_cfar_detection":false,"status":"processado_sem_deteccao","source_arquivo_id":923,"raster_width":2320,"raster_height":2160},"geometry":{"type":"Polygon","coordinates":[[[-47.726615616660624,2.99608169776539],[-47.93078288101912,3.039111695248687],[-47.97084765714196,2.8453890447397265],[-47.76672595766451,2.80230968856794],[-47.726615616660624,2.99608169776539]]]}},{"type":"Feature","properties":{"patch_label":"P007","patch_number":7,"has_cfar_detection":false,"status":"processado_sem_deteccao","source_arquivo_id":923,"raster_width":2320,"raster_height":2160},"geometry":{"type":"Polygon","coordinates":[[[-47.90269660917763,3.0331955347952815],[-48.10687906373397,3.0761917888177317],[-48.14690305115739,2.8825138514996054],[-47.94276756386483,2.839465874902947],[-47.90269660917763,3.0331955347952815]]]}},{"type":"Feature","properties":{"patch_label":"P008","patch_number":8,"has_cfar_detection":false,"status":"processado_sem_deteccao","source_arquivo_id":923,"raster_width":2320,"raster_height":2160},"geometry":{"type":"Polygon","coordinates":[[[-48.07879105941892,3.0702786880465056],[-48.28298842520508,3.1132397059388244],[-48.32297149051966,2.919608156366932],[-48.11882175575467,2.8765935427720817],[-48.07879105941892,3.0702786880465056]]]}},{"type":"Feature","properties":{"patch_label":"P009","patch_number":9,"has_cfar_detection":false,"status":"processado_sem_deteccao","source_arquivo_id":923,"raster_width":2320,"raster_height":2160},"geometry":{"type":"Polygon","coordinates":[[[-48.254898416137145,3.107332724517054],[-48.45910800804765,3.1502599717500117],[-48.49905263012438,2.956676727628186],[-48.29488760273846,2.9136936452051008],[-48.254898416137145,3.107332724517054]]]}},{"type":"Feature","properties":{"patch_label":"P010","patch_number":10,"has_cfar_detection":false,"status":"processado_sem_deteccao","source_arquivo_id":923,"raster_width":2320,"raster_height":2160},"geometry":{"type":"Polygon","coordinates":[[[-48.43101621193983,3.144356774785982],[-48.63524251488183,3.1872473428754287],[-48.67514110270267,2.9937140863580876],[-48.470967122898244,2.9507657218005665],[-48.43101621193983,3.144356774785982]]]}},{"type":"Feature","properties":{"patch_label":"P011","patch_number":11,"has_cfar_detection":false,"status":"processado_sem_deteccao","source_arquivo_id":923,"raster_width":2320,"raster_height":2160},"geometry":{"type":"Polygon","coordinates":[[[-48.60714832715952,3.181349775842023],[-48.81138536300743,3.2242058321224945],[-48.851243299651394,3.0307243333539136],[-48.64705463158177,2.9878084637252664],[-48.60714832715952,3.181349775842023]]]}},{"type":"Feature","properties":{"patch_label":"P012","patch_number":12,"has_cfar_detection":false,"status":"processado_sem_deteccao","source_arquivo_id":923,"raster_width":2320,"raster_height":2160},"geometry":{"type":"Polygon","coordinates":[[[-48.783289520532065,3.218313370995286],[-48.98754394806953,3.261131548482375],[-49.02736055881491,3.0677038501634826],[-48.82315379195177,3.0248234586606317],[-48.783289520532065,3.218313370995286]]]}},{"type":"Feature","properties":{"patch_label":"P013","patch_number":13,"has_cfar_detection":false,"status":"processado_sem_deteccao","source_arquivo_id":923,"raster_width":2012,"raster_height":2160},"geometry":{"type":"Polygon","coordinates":[[[-48.95944584926144,3.255243690063052],[-49.136497311786,3.292329519397369],[-49.1762728662741,3.0989489233636283],[-48.99926903881835,3.0618073035825515],[-48.95944584926144,3.255243690063052]]]}},{"type":"Feature","properties":{"patch_label":"P014","patch_number":14,"has_cfar_detection":false,"status":"processado_sem_deteccao","source_arquivo_id":923,"raster_width":2160,"raster_height":2320},"geometry":{"type":"Polygon","coordinates":[[[-46.89480329028123,2.6477728631507973],[-47.084788786279105,2.6880156161737787],[-47.128045899131266,2.4797284239608177],[-46.93809918122931,2.439446494347831],[-46.89480329028123,2.6477728631507973]]]}},{"type":"Feature","properties":{"patch_label":"P015","patch_number":15,"has_cfar_detection":false,"status":"processado_sem_deteccao","source_arquivo_id":923,"raster_width":2320,"raster_height":2320},"geometry":{"type":"Polygon","coordinates":[[[-47.05671727699445,2.682071202792965],[-47.26079377671971,2.7252689011879028],[-47.304014515554975,2.51701975566811],[-47.09997949633858,2.4737781245722155],[-47.05671727699445,2.682071202792965]]]}},{"type":"Feature","properties":{"patch_label":"P016","patch_number":16,"has_cfar_detection":true,"status":"com_deteccao_cfar","source_arquivo_id":923,"raster_width":2320,"raster_height":2320},"geometry":{"type":"Polygon","coordinates":[[[-47.232719881643945,2.7193295941572195],[-47.436811233455174,2.762495453103797],[-47.479993786300824,2.5542864210003295],[-47.27594632599889,2.5110741780126338],[-47.232719881643945,2.7193295941572195]]]}},{"type":"Feature","properties":{"patch_label":"P017","patch_number":17,"has_cfar_detection":false,"status":"processado_sem_deteccao","source_arquivo_id":923,"raster_width":2320,"raster_height":2320},"geometry":{"type":"Polygon","coordinates":[[[-47.408735678762675,2.756559195586583],[-47.612836712699625,2.7996948281351735],[-47.655981808918604,2.5915278895506217],[-47.451924764818635,2.5483436616208492],[-47.408735678762675,2.756559195586583]]]}},{"type":"Feature","properties":{"patch_label":"P018","patch_number":18,"has_cfar_detection":false,"status":"processado_sem_deteccao","source_arquivo_id":923,"raster_width":2320,"raster_height":2320},"geometry":{"type":"Polygon","coordinates":[[[-47.584759200779196,2.7937641763653542],[-47.78887672025514,2.836867916778461],[-47.83198063389899,2.6287450237357053],[-47.627911343060475,2.585590322893651],[-47.584759200779196,2.7937641763653542]]]}},{"type":"Feature","properties":{"patch_label":"P019","patch_number":19,"has_cfar_detection":false,"status":"processado_sem_deteccao","source_arquivo_id":923,"raster_width":2320,"raster_height":2320},"geometry":{"type":"Polygon","coordinates":[[[-47.760797644929745,2.830940046475299],[-47.96492552880605,2.874012098440643],[-48.007992890074696,2.665935261530809],[-47.803907744626514,2.6228100397220744],[-47.760797644929745,2.830940046475299]]]}},{"type":"Feature","properties":{"patch_label":"P020","patch_number":20,"has_cfar_detection":false,"status":"processado_sem_deteccao","source_arquivo_id":923,"raster_width":2320,"raster_height":2320},"geometry":{"type":"Polygon","coordinates":[[[-47.93684452842722,2.8680899595757907],[-48.140986757746795,2.911130309949111],[-48.184012978489235,2.703101363353013],[-47.979918457514465,2.6600056404765633],[-47.93684452842722,2.8680899595757907]]]}},{"type":"Feature","properties":{"patch_label":"P021","patch_number":21,"has_cfar_detection":false,"status":"processado_sem_deteccao","source_arquivo_id":923,"raster_width":2320,"raster_height":2320},"geometry":{"type":"Polygon","coordinates":[[[-48.11290451692505,2.905211066223004],[-48.31706131955087,2.94821774185787],[-48.36004314619667,2.7402388722087396],[-48.15593729711462,2.6971743837812894],[-48.11290451692505,2.905211066223004]]]}},{"type":"Feature","properties":{"patch_label":"P022","patch_number":22,"has_cfar_detection":false,"status":"processado_sem_deteccao","source_arquivo_id":923,"raster_width":2320,"raster_height":2320},"geometry":{"type":"Polygon","coordinates":[[[-48.28897648362466,2.9423043432421614],[-48.49314840963849,2.9852791939050913],[-48.53608609767612,2.777352019307085],[-48.331965308554544,2.734317379555436],[-48.28897648362466,2.9423043432421614]]]}},{"type":"Feature","properties":{"patch_label":"P023","patch_number":23,"has_cfar_detection":false,"status":"processado_sem_deteccao","source_arquivo_id":923,"raster_width":2320,"raster_height":2320},"geometry":{"type":"Polygon","coordinates":[[[-48.46506195101098,2.979369339001338],[-48.66924286343781,3.0223091260724995],[-48.71214100324235,2.814436142474328],[-48.50800661281413,2.7714338079361847],[-48.46506195101098,2.979369339001338]]]}},{"type":"Feature","properties":{"patch_label":"P024","patch_number":24,"has_cfar_detection":false,"status":"processado_sem_deteccao","source_arquivo_id":923,"raster_width":2320,"raster_height":2320},"geometry":{"type":"Polygon","coordinates":[[[-48.64115544861603,3.016404703062664],[-48.84535097772074,3.059311710294941],[-48.88820638550491,2.8514945112712673],[-48.68405958918032,2.808522954739512],[-48.64115544861603,3.016404703062664]]]}},{"type":"Feature","properties":{"patch_label":"P025","patch_number":25,"has_cfar_detection":false,"status":"processado_sem_deteccao","source_arquivo_id":923,"raster_width":2320,"raster_height":2320},"geometry":{"type":"Polygon","coordinates":[[[-48.81726045795967,3.0534120787362484],[-49.02147479358295,3.096283277894945],[-49.064281373196266,2.8885239100271196],[-48.86012348164952,2.845585835373494],[-48.81726045795967,3.0534120787362484]]]}},{"type":"Feature","properties":{"patch_label":"P026","patch_number":26,"has_cfar_detection":false,"status":"processado_sem_deteccao","source_arquivo_id":923,"raster_width":2012,"raster_height":2320},"geometry":{"type":"Polygon","coordinates":[[[-48.9933822650788,3.0903880150210785],[-49.17039249686551,3.127521410543876],[-49.21316287656757,2.9198123959951414],[-49.03619625130928,2.882619315126032],[-48.9933822650788,3.0903880150210785]]]}},{"type":"Feature","properties":{"patch_label":"P027","patch_number":27,"has_cfar_detection":false,"status":"processado_sem_deteccao","source_arquivo_id":923,"raster_width":2160,"raster_height":2320},"geometry":{"type":"Polygon","coordinates":[[[-46.932141204258656,2.468103557498637],[-47.122093225058265,2.5083801022896113],[-47.16537743778495,2.3000948051434555],[-46.97546316790335,2.2597791325430436],[-46.932141204258656,2.468103557498637]]]}},{"type":"Feature","properties":{"patch_label":"P028","patch_number":28,"has_cfar_detection":false,"status":"processado_sem_deteccao","source_arquivo_id":923,"raster_width":2320,"raster_height":2320},"geometry":{"type":"Polygon","coordinates":[[[-47.09402596568261,2.502430617441684],[-47.29806663312058,2.545666186812938],[-47.34131685462017,2.337419120990078],[-47.137316731320766,2.294139385735503],[-47.09402596568261,2.502430617441684]]]}},{"type":"Feature","properties":{"patch_label":"P029","patch_number":29,"has_cfar_detection":false,"status":"processado_sem_deteccao","source_arquivo_id":923,"raster_width":2320,"raster_height":2320},"geometry":{"type":"Polygon","coordinates":[[[-47.269997641217664,2.539721476572702],[-47.474050989555344,2.5829273186966706],[-47.51726489020284,2.374720520601601],[-47.313253757454035,2.3314680917008825],[-47.269997641217664,2.539721476572702]]]}},{"type":"Feature","properties":{"patch_label":"P030","patch_number":30,"has_cfar_detection":false,"status":"processado_sem_deteccao","source_arquivo_id":923,"raster_width":2320,"raster_height":2320},"geometry":{"type":"Polygon","coordinates":[[[-47.44598115896692,2.576985453157665],[-47.65004373053074,2.6201629876478445],[-47.69322457708607,2.4119984152118135],[-47.489200612805924,2.368772157206604],[-47.44598115896692,2.576985453157665]]]}},{"type":"Feature","properties":{"patch_label":"P031","patch_number":31,"has_cfar_detection":false,"status":"processado_sem_deteccao","source_arquivo_id":923,"raster_width":2320,"raster_height":2320},"geometry":{"type":"Polygon","coordinates":[[[-47.621972499421986,2.6142263781656667],[-47.826047989932235,2.657374065168161],[-47.869190062916104,2.4492535179827613],[-47.665158227065895,2.406054841336372],[-47.621972499421986,2.6142263781656667]]]}},{"type":"Feature","properties":{"patch_label":"P032","patch_number":32,"has_cfar_detection":false,"status":"processado_sem_deteccao","source_arquivo_id":923,"raster_width":2320,"raster_height":2320},"geometry":{"type":"Polygon","coordinates":[[[-47.797974152514136,2.651440054294805],[-48.00206573016541,2.6945579514510913],[-48.04516704713018,2.486483645668794],[-47.84112345418024,2.4433124388987735],[-47.797974152514136,2.651440054294805]]]}},{"type":"Feature","properties":{"patch_label":"P033","patch_number":33,"has_cfar_detection":false,"status":"processado_sem_deteccao","source_arquivo_id":923,"raster_width":2320,"raster_height":2320},"geometry":{"type":"Polygon","coordinates":[[[-47.973990390254045,2.688629369923839],[-48.178091239942155,2.7317174617049984],[-48.22115419338685,2.5236911137096363],[-48.01709810146484,2.4805474808414005],[-47.973990390254045,2.688629369923839]]]}},{"type":"Feature","properties":{"patch_label":"P034","patch_number":34,"has_cfar_detection":true,"status":"com_deteccao_cfar","source_arquivo_id":923,"raster_width":2320,"raster_height":2320},"geometry":{"type":"Polygon","coordinates":[[[-48.15001472041524,2.7257915408540208],[-48.354127074807366,2.768848069807421],[-48.397150789003454,2.5608719417159413],[-48.193083620892075,2.5177575025128784],[-48.15001472041524,2.7257915408540208]]]}},{"type":"Feature","properties":{"patch_label":"P035","patch_number":35,"has_cfar_detection":false,"status":"processado_sem_deteccao","source_arquivo_id":923,"raster_width":2320,"raster_height":2320},"geometry":{"type":"Polygon","coordinates":[[[-48.32604837981953,2.76292769598091],[-48.53017563987911,2.805954074990824],[-48.5731600510145,2.598030001571294],[-48.369078055038585,2.554943407175974],[-48.32604837981953,2.76292769598091]]]}},{"type":"Feature","properties":{"patch_label":"P036","patch_number":36,"has_cfar_detection":false,"status":"processado_sem_deteccao","source_arquivo_id":923,"raster_width":2320,"raster_height":2320},"geometry":{"type":"Polygon","coordinates":[[[-48.50209524643668,2.800037017155332],[-48.70623628656565,2.843030751964218],[-48.74917791511946,2.6351607503153827],[-48.54508608153527,2.592104543077779],[-48.50209524643668,2.800037017155332]]]}},{"type":"Feature","properties":{"patch_label":"P037","patch_number":37,"has_cfar_detection":false,"status":"processado_sem_deteccao","source_arquivo_id":923,"raster_width":2320,"raster_height":2320},"geometry":{"type":"Polygon","coordinates":[[[-48.67815390353548,2.837118765584267],[-48.88230770394308,2.88008144789059],[-48.92520530266436,2.6722672471018885],[-48.72110291218945,2.6292400437564125],[-48.67815390353548,2.837118765584267]]]}},{"type":"Feature","properties":{"patch_label":"P038","patch_number":38,"has_cfar_detection":false,"status":"processado_sem_deteccao","source_arquivo_id":923,"raster_width":2320,"raster_height":2320},"geometry":{"type":"Polygon","coordinates":[[[-48.854223872044685,2.874174022384632],[-49.058388383829126,2.9171028537950767],[-49.10124837314158,2.7093468888319325],[-48.89712777537477,2.6663507135456563],[-48.854223872044685,2.874174022384632]]]}},{"type":"Feature","properties":{"patch_label":"P039","patch_number":39,"has_cfar_detection":false,"status":"processado_sem_deteccao","source_arquivo_id":923,"raster_width":2012,"raster_height":2320},"geometry":{"type":"Polygon","coordinates":[[[-49.03030234156541,2.911199542601054],[-49.20727527174359,2.9483844154266223],[-49.250094897914124,2.7406788053096665],[-49.073168636820085,2.703434231493339],[-49.03030234156541,2.911199542601054]]]}},{"type":"Feature","properties":{"patch_label":"P040","patch_number":40,"has_cfar_detection":false,"status":"processado_sem_deteccao","source_arquivo_id":923,"raster_width":2160,"raster_height":2320},"geometry":{"type":"Polygon","coordinates":[[[-46.96950183339681,2.2884359325202395],[-47.15942060750988,2.328746215169019],[-47.20273348722621,2.1204627886333647],[-47.01284624009858,2.0801132707519017],[-46.96950183339681,2.2884359325202395]]]}},{"type":"Feature","properties":{"patch_label":"P041","patch_number":41,"has_cfar_detection":false,"status":"processado_sem_deteccao","source_arquivo_id":923,"raster_width":2320,"raster_height":2320},"geometry":{"type":"Polygon","coordinates":[[[-47.1313592383016,2.322791606471336],[-47.335364544719106,2.3660652351217744],[-47.37864514546782,2.157820372993793],[-47.17467637961119,2.114502290009554],[-47.1313592383016,2.322791606471336]]]}},{"type":"Feature","properties":{"patch_label":"P042","patch_number":42,"has_cfar_detection":false,"status":"processado_sem_deteccao","source_arquivo_id":923,"raster_width":2320,"raster_height":2320},"geometry":{"type":"Polygon","coordinates":[[[-47.30730068395874,2.3601150715722703],[-47.511317534095475,2.4033611134352366],[-47.55456267665456,2.1951563892965336],[-47.35058670363675,2.151863920213993],[-47.30730068395874,2.3601150715722703]]]}},{"type":"Feature","properties":{"patch_label":"P043","patch_number":43,"has_cfar_detection":false,"status":"processado_sem_deteccao","source_arquivo_id":923,"raster_width":2320,"raster_height":2320},"geometry":{"type":"Polygon","coordinates":[[[-47.48325244389483,2.3974136438807143],[-47.6872819609834,2.4406331649953077],[-47.730492358736576,2.232470976805837],[-47.52650348041595,2.189202414049341],[-47.48325244389483,2.3974136438807143]]]}},{"type":"Feature","properties":{"patch_label":"P044","patch_number":44,"has_cfar_detection":false,"status":"processado_sem_deteccao","source_arquivo_id":923,"raster_width":2320,"raster_height":2320},"geometry":{"type":"Polygon","coordinates":[[[-47.659214835581864,2.4346905374055803],[-47.863252893544825,2.477882203571298],[-47.90642442200861,2.2697641864250175],[-47.70243110071222,2.2265214773189093],[-47.659214835581864,2.4346905374055803]]]}},{"type":"Feature","properties":{"patch_label":"P045","patch_number":45,"has_cfar_detection":false,"status":"processado_sem_deteccao","source_arquivo_id":923,"raster_width":2320,"raster_height":2320},"geometry":{"type":"Polygon","coordinates":[[[-47.835185341157185,2.471942108516665],[-48.03923465112171,2.515105957530639],[-48.08237328104254,2.3070342980565424],[-47.87836333610632,2.26381690715365],[-47.835185341157185,2.471942108516665]]]}},{"type":"Feature","properties":{"patch_label":"P046","patch_number":46,"has_cfar_detection":false,"status":"processado_sem_deteccao","source_arquivo_id":923,"raster_width":2320,"raster_height":2320},"geometry":{"type":"Polygon","coordinates":[[[-48.01116501473191,2.5091708245694297],[-48.2152268473194,2.5523068103633095],[-48.25832947598548,2.3442832929743633],[-48.05430850394984,2.3010916788996645],[-48.01116501473191,2.5091708245694297]]]}},{"type":"Feature","properties":{"patch_label":"P047","patch_number":47,"has_cfar_detection":false,"status":"processado_sem_deteccao","source_arquivo_id":923,"raster_width":2320,"raster_height":2320},"geometry":{"type":"Polygon","coordinates":[[[-48.18715539786087,2.5463742687763773],[-48.39122855935011,2.5894807146910024],[-48.434294534059404,2.381507565059147],[-48.23026431913334,2.3383429528722286],[-48.18715539786087,2.5463742687763773]]]}},{"type":"Feature","properties":{"patch_label":"P048","patch_number":48,"has_cfar_detection":false,"status":"processado_sem_deteccao","source_arquivo_id":923,"raster_width":2320,"raster_height":2320},"geometry":{"type":"Polygon","coordinates":[[[-48.36315489260893,2.5835533092647744],[-48.567243470828984,2.626631600115159],[-48.61026847309206,2.418710635334374],[-48.4062277208358,2.3755719517473635],[-48.36315489260893,2.5835533092647744]]]}},{"type":"Feature","properties":{"patch_label":"P049","patch_number":49,"has_cfar_detection":false,"status":"processado_sem_deteccao","source_arquivo_id":923,"raster_width":2320,"raster_height":2320},"geometry":{"type":"Polygon","coordinates":[[[-48.53916860575021,2.620707296382755],[-48.74326687460369,2.6637549206534974],[-48.78625261980772,2.4558879639297917],[-48.58220006801473,2.412777932113177],[-48.53916860575021,2.620707296382755]]]}},{"type":"Feature","properties":{"patch_label":"P050","patch_number":50,"has_cfar_detection":false,"status":"processado_sem_deteccao","source_arquivo_id":923,"raster_width":2320,"raster_height":2320},"geometry":{"type":"Polygon","coordinates":[[[-48.71519109001963,2.657835419279796],[-48.919299926291664,2.700853714112256],[-48.962245407116576,2.49304286341249],[-48.75818212481906,2.4499596859881563],[-48.71519109001963,2.657835419279796]]]}},{"type":"Feature","properties":{"patch_label":"P051","patch_number":51,"has_cfar_detection":false,"status":"processado_sem_deteccao","source_arquivo_id":923,"raster_width":2320,"raster_height":2320},"geometry":{"type":"Polygon","coordinates":[[[-48.89122150916478,2.6949384295024363],[-49.09534830264992,2.7379253501446437],[-49.138253965013696,2.530172660157825],[-48.93417355230091,2.487118502898536],[-48.89122150916478,2.6949384295024363]]]}},{"type":"Feature","properties":{"patch_label":"P052","patch_number":52,"has_cfar_detection":false,"status":"processado_sem_deteccao","source_arquivo_id":923,"raster_width":2012,"raster_height":2320},"geometry":{"type":"Polygon","coordinates":[[[-49.06726770849685,2.7320139906304646],[-49.244199914994965,2.769250324544066],[-49.287070612742234,2.5615481512703537],[-49.11017976079717,2.5242518509380605],[-49.06726770849685,2.7320139906304646]]]}},{"type":"Feature","properties":{"patch_label":"P053","patch_number":53,"has_cfar_detection":false,"status":"processado_sem_deteccao","source_arquivo_id":923,"raster_width":2160,"raster_height":2320},"geometry":{"type":"Polygon","coordinates":[[[-47.006880844011654,2.1087697888798784],[-47.196772840272274,2.14911388162029],[-47.24011184618681,1.9408327134729462],[-47.0502539063074,1.900449122019099],[-47.006880844011654,2.1087697888798784]]]}},{"type":"Feature","properties":{"patch_label":"P054","patch_number":54,"has_cfar_detection":false,"status":"processado_sem_deteccao","source_arquivo_id":923,"raster_width":2320,"raster_height":2320},"geometry":{"type":"Polygon","coordinates":[[[-47.16871509081757,2.143154203011502],[-47.37268873422764,2.1864661806755814],[-47.41599689902462,1.9782234223234105],[-47.212058694817195,1.934867057962517],[-47.16871509081757,2.143154203011502]]]}},{"type":"Feature","properties":{"patch_label":"P055","patch_number":55,"has_cfar_detection":false,"status":"processado_sem_deteccao","source_arquivo_id":923,"raster_width":2320,"raster_height":2320},"geometry":{"type":"Polygon","coordinates":[[[-47.34462955477973,2.1805105975522108],[-47.54861072820152,2.223796634319967],[-47.59188764828058,2.0155944069653238],[-47.38794301264132,1.9722615055074257],[-47.34462955477973,2.1805105975522108]]]}},{"type":"Feature","properties":{"patch_label":"P056","patch_number":56,"has_cfar_detection":false,"status":"processado_sem_deteccao","source_arquivo_id":923,"raster_width":2320,"raster_height":2320},"geometry":{"type":"Polygon","coordinates":[[[-47.5205508559533,2.217843560749929],[-47.72454495602441,2.2611053914465775],[-47.76778928157775,2.0529455360631768],[-47.5638323912233,2.009634763778087],[-47.5205508559533,2.217843560749929]]]}},{"type":"Feature","properties":{"patch_label":"P057","patch_number":57,"has_cfar_detection":false,"status":"processado_sem_deteccao","source_arquivo_id":923,"raster_width":2320,"raster_height":2320},"geometry":{"type":"Polygon","coordinates":[[[-47.696482950675716,2.2551568568548688],[-47.90048145801006,2.298392467911748],[-47.94369497018183,2.0902772347506056],[-47.73973259622873,2.0469899685452675],[-47.696482950675716,2.2551568568548688]]]}},{"type":"Feature","properties":{"patch_label":"P058","patch_number":58,"has_cfar_detection":false,"status":"processado_sem_deteccao","source_arquivo_id":923,"raster_width":2320,"raster_height":2320},"geometry":{"type":"Polygon","coordinates":[[[-47.8724196957573,2.2924461775702674],[-48.076435145822245,2.335656207109055],[-48.119613592572854,2.1275873305166546],[-47.91563779722751,2.0843237595991995],[-47.8724196957573,2.2924461775702674]]]}},{"type":"Feature","properties":{"patch_label":"P059","patch_number":59,"has_cfar_detection":false,"status":"processado_sem_deteccao","source_arquivo_id":923,"raster_width":2320,"raster_height":2320},"geometry":{"type":"Polygon","coordinates":[[[-48.04836943847161,2.329714630591188],[-48.252396125078384,2.372898572243962],[-48.29553953861774,2.1648779284189383],[-48.09155471976609,2.121638149161938],[-48.04836943847161,2.329714630591188]]]}},{"type":"Feature","properties":{"patch_label":"P060","patch_number":60,"has_cfar_detection":false,"status":"processado_sem_deteccao","source_arquivo_id":923,"raster_width":2320,"raster_height":2320},"geometry":{"type":"Polygon","coordinates":[[[-48.22433030919496,2.3669592988155057],[-48.42836627752954,2.410115916280472],[-48.47147316558682,2.202145670274585],[-48.26747853421018,2.158930906884591],[-48.22433030919496,2.3669592988155057]]]}},{"type":"Feature","properties":{"patch_label":"P061","patch_number":61,"has_cfar_detection":false,"status":"processado_sem_deteccao","source_arquivo_id":923,"raster_width":2320,"raster_height":2320},"geometry":{"type":"Polygon","coordinates":[[[-48.40029871721415,2.4041814188593356],[-48.604345167523256,2.4473118060701893],[-48.647417244714696,2.239393761320475],[-48.44341072124156,2.196203064522632],[-48.40029871721415,2.4041814188593356]]]}},{"type":"Feature","properties":{"patch_label":"P062","patch_number":62,"has_cfar_detection":false,"status":"processado_sem_deteccao","source_arquivo_id":923,"raster_width":2320,"raster_height":2320},"geometry":{"type":"Polygon","coordinates":[[[-48.57627595228558,2.4413802649697858],[-48.78033464223362,2.484481679771891],[-48.823368456095736,2.2766178902841894],[-48.61935377868695,2.2334537685287428],[-48.57627595228558,2.4413802649697858]]]}},{"type":"Feature","properties":{"patch_label":"P063","patch_number":63,"has_cfar_detection":false,"status":"processado_sem_deteccao","source_arquivo_id":923,"raster_width":2320,"raster_height":2320},"geometry":{"type":"Polygon","coordinates":[[[-48.75226323411937,2.4785546094657906],[-48.95633304496396,2.5216288285294373],[-48.99932698517504,2.313821411414904],[-48.79530381882835,2.2706820323452046],[-48.75226323411937,2.4785546094657906]]]}},{"type":"Feature","properties":{"patch_label":"P064","patch_number":64,"has_cfar_detection":false,"status":"processado_sem_deteccao","source_arquivo_id":923,"raster_width":2320,"raster_height":2320},"geometry":{"type":"Polygon","coordinates":[[[-48.92826027695191,2.5157057230019686],[-49.13234768670845,2.5587506394893342],[-49.17529758080408,2.3510013017536067],[-48.97126069328255,2.3078891758003324],[-48.92826027695191,2.5157057230019686]]]}},{"type":"Feature","properties":{"patch_label":"P065","patch_number":65,"has_cfar_detection":false,"status":"processado_sem_deteccao","source_arquivo_id":923,"raster_width":2012,"raster_height":2320},"geometry":{"type":"Polygon","coordinates":[[[-49.104272468343005,2.5528311173211584],[-49.281168472298255,2.5901191703445208],[-49.32408880670227,2.3824204685775934],[-49.14722976901249,2.345072426984319],[-49.104272468343005,2.5528311173211584]]]}},{"type":"Feature","properties":{"patch_label":"P066","patch_number":66,"has_cfar_detection":false,"status":"processado_sem_deteccao","source_arquivo_id":923,"raster_width":2160,"raster_height":2320},"geometry":{"type":"Polygon","coordinates":[[[-47.044285188658456,1.9291053483721954],[-47.234146823569596,1.969483490415897],[-47.277515938334666,1.7612044737394097],[-47.0876810278419,1.7207867053411776],[-47.044285188658456,1.9291053483721954]]]}},{"type":"Feature","properties":{"patch_label":"P067","patch_number":67,"has_cfar_detection":false,"status":"processado_sem_deteccao","source_arquivo_id":923,"raster_width":2320,"raster_height":2320},"geometry":{"type":"Polygon","coordinates":[[[-47.206093188992945,1.9635186574288839],[-47.410036417726786,2.0068688980548695],[-47.45337298930277,1.7986284709109668],[-47.24946608030315,1.7552336613423616],[-47.206093188992945,1.9635186574288839]]]}},{"type":"Feature","properties":{"patch_label":"P068","patch_number":68,"has_cfar_detection":false,"status":"processado_sem_deteccao","source_arquivo_id":923,"raster_width":2320,"raster_height":2320},"geometry":{"type":"Polygon","coordinates":[[[-47.38198185658523,2.000907856372977],[-47.585930969418115,2.0442342825487496],[-47.62924030456446,1.836034569227619],[-47.42532317166352,1.7926610634298343],[-47.38198185658523,2.000907856372977]]]}},{"type":"Feature","properties":{"patch_label":"P069","patch_number":69,"has_cfar_detection":false,"status":"processado_sem_deteccao","source_arquivo_id":923,"raster_width":2320,"raster_height":2320},"geometry":{"type":"Polygon","coordinates":[[[-47.55787515561033,2.0382755470182707],[-47.76183701974001,2.0815795641856147],[-47.8051147300717,1.8734224197349287],[-47.60118857212316,1.8300692372954304],[-47.55787515561033,2.0382755470182707]]]}},{"type":"Feature","properties":{"patch_label":"P070","patch_number":70,"has_cfar_detection":false,"status":"processado_sem_deteccao","source_arquivo_id":923,"raster_width":2320,"raster_height":2320},"geometry":{"type":"Polygon","coordinates":[[[-47.73377961333833,2.0756249536576847],[-47.9377468859249,2.1189051667589456],[-47.98099416646443,1.9107923479031277],[-47.77706246614552,1.8674608512971038],[-47.73377961333833,2.0756249536576847]]]}},{"type":"Feature","properties":{"patch_label":"P071","patch_number":71,"has_cfar_detection":false,"status":"processado_sem_deteccao","source_arquivo_id":923,"raster_width":2320,"raster_height":2320},"geometry":{"type":"Polygon","coordinates":[[[-47.90968909037899,2.1129526762300856],[-48.11366983953515,2.1562088518257614],[-48.156886008532176,1.9481426568248863],[-47.952940993970394,1.9048326976765917],[-47.90968909037899,2.1129526762300856]]]}},{"type":"Feature","properties":{"patch_label":"P072","patch_number":72,"has_cfar_detection":false,"status":"processado_sem_deteccao","source_arquivo_id":923,"raster_width":2320,"raster_height":2320},"geometry":{"type":"Polygon","coordinates":[[[-48.08561031943786,2.1502607207619207],[-48.28960102770857,2.1934927913540876],[-48.33278059180664,1.9854750425848187],[-48.128830963956936,1.9421868924674224],[-48.08561031943786,2.1502607207619207]]]}},{"type":"Feature","properties":{"patch_label":"P073","patch_number":73,"has_cfar_detection":false,"status":"processado_sem_deteccao","source_arquivo_id":923,"raster_width":2320,"raster_height":2320},"geometry":{"type":"Polygon","coordinates":[[[-48.26153906962981,2.187546839128499],[-48.465539156199796,2.2307535697144614],[-48.50868615184208,2.022786448739453],[-48.304725320829505,1.9795213047243199],[-48.26153906962981,2.187546839128499]]]}},{"type":"Feature","properties":{"patch_label":"P074","patch_number":74,"has_cfar_detection":false,"status":"processado_sem_deteccao","source_arquivo_id":923,"raster_width":2320,"raster_height":2320},"geometry":{"type":"Polygon","coordinates":[[[-48.4374760161773,2.2248120937379983],[-48.64148791712105,2.2679944799928258],[-48.68460090527644,2.0600795820087265],[-48.480628054856936,2.0168367485423255],[-48.4374760161773,2.2248120937379983]]]}},{"type":"Feature","properties":{"patch_label":"P075","patch_number":75,"has_cfar_detection":false,"status":"processado_sem_deteccao","source_arquivo_id":923,"raster_width":2320,"raster_height":2320},"geometry":{"type":"Polygon","coordinates":[[[-48.61342367811808,2.262055644056495],[-48.81744405523954,2.305211126831736],[-48.86052189747236,2.097350677388208],[-48.656542269230854,2.0541323341954363],[-48.61342367811808,2.262055644056495]]]}},{"type":"Feature","properties":{"patch_label":"P076","patch_number":76,"has_cfar_detection":false,"status":"processado_sem_deteccao","source_arquivo_id":923,"raster_width":2320,"raster_height":2320},"geometry":{"type":"Polygon","coordinates":[[[-48.78937863151165,2.29927648514297],[-48.99340712203604,2.342406910275654],[-49.03645201942141,2.1346027329223527],[-48.83246208720718,2.0914071931457148],[-48.78937863151165,2.29927648514297]]]}},{"type":"Feature","properties":{"patch_label":"P077","patch_number":77,"has_cfar_detection":false,"status":"processado_sem_deteccao","source_arquivo_id":923,"raster_width":2320,"raster_height":2320},"geometry":{"type":"Polygon","coordinates":[[[-48.965340090614475,2.3364759276822182],[-49.16938284650832,2.379578770206716],[-49.21239149486673,2.1718330083663973],[-49.00839027113999,2.128662634350642],[-48.965340090614475,2.3364759276822182]]]}},{"type":"Feature","properties":{"patch_label":"P078","patch_number":78,"has_cfar_detection":false,"status":"processado_sem_deteccao","source_arquivo_id":923,"raster_width":2012,"raster_height":2320},"geometry":{"type":"Polygon","coordinates":[[[-49.14131416278715,2.37365119637386],[-49.318178528136414,2.4109909525555198],[-49.361154483846946,2.2032959672914285],[-49.184329033672896,2.165895975435268],[-49.14131416278715,2.37365119637386]]]}},{"type":"Feature","properties":{"patch_label":"P079","patch_number":79,"has_cfar_detection":false,"status":"processado_sem_deteccao","source_arquivo_id":923,"raster_width":2160,"raster_height":2320},"geometry":{"type":"Polygon","coordinates":[[[-47.08170804667869,1.749442620883582],[-47.2715471510368,1.789854938059185],[-47.314942287536766,1.5815781244485478],[-47.125132988565156,1.5411261240741971],[-47.08170804667869,1.749442620883582]]]}},{"type":"Feature","properties":{"patch_label":"P080","patch_number":80,"has_cfar_detection":false,"status":"processado_sem_deteccao","source_arquivo_id":923,"raster_width":2320,"raster_height":2320},"geometry":{"type":"Polygon","coordinates":[[[-47.24349644980766,1.7838849481855528],[-47.44740808189516,1.827273593754498],[-47.490776057225844,1.6190356041237755],[-47.28689733145064,1.575602150079535],[-47.24349644980766,1.7838849481855528]]]}},{"type":"Feature","properties":{"patch_label":"P081","patch_number":81,"has_cfar_detection":false,"status":"processado_sem_deteccao","source_arquivo_id":923,"raster_width":2320,"raster_height":2320},"geometry":{"type":"Polygon","coordinates":[[[-47.41935771736998,1.8213070629822978],[-47.62327909836921,1.8646741036666887],[-47.66661985201125,1.6564767859650378],[-47.46272965123643,1.6130626960831815],[-47.41935771736998,1.8213070629822978]]]}},{"type":"Feature","properties":{"patch_label":"P082","patch_number":82,"has_cfar_detection":false,"status":"processado_sem_deteccao","source_arquivo_id":923,"raster_width":2320,"raster_height":2320},"geometry":{"type":"Polygon","coordinates":[[[-47.59522672892258,1.8587096751420429],[-47.79915749156431,1.9020560589171194],[-47.842469615884575,1.6939015693529533],[-47.63857221629688,1.6505057802294545],[-47.59522672892258,1.8587096751420429]]]}},{"type":"Feature","properties":{"patch_label":"P083","patch_number":83,"has_cfar_detection":false,"status":"processado_sem_deteccao","source_arquivo_id":923,"raster_width":2320,"raster_height":2320},"geometry":{"type":"Polygon","coordinates":[[[-47.77110460008093,1.8960954555205753],[-47.975041186236545,1.9394198537262506],[-48.01832365002894,1.7313099898840116],[-47.81442107137911,1.6879339497707146],[-47.77110460008093,1.8960954555205753]]]}},{"type":"Feature","properties":{"patch_label":"P084","patch_number":84,"has_cfar_detection":false,"status":"processado_sem_deteccao","source_arquivo_id":923,"raster_width":2320,"raster_height":2320},"geometry":{"type":"Polygon","coordinates":[[[-47.946987293058214,1.9334611923714746],[-48.1509373038875,1.9767637528914495],[-48.19418846073821,1.768700519764838],[-47.99027479610566,1.7253441292994038],[-47.946987293058214,1.9334611923714746]]]}},{"type":"Feature","properties":{"patch_label":"P085","patch_number":85,"has_cfar_detection":false,"status":"processado_sem_deteccao","source_arquivo_id":923,"raster_width":2320,"raster_height":2320},"geometry":{"type":"Polygon","coordinates":[[[-48.1228816503659,1.9708090345756466],[-48.32683535499242,2.0140894524833763],[-48.370060977234196,1.8060748195998404],[-48.16613744896248,1.76273819243153],[-48.1228816503659,1.9708090345756466]]]}},{"type":"Feature","properties":{"patch_label":"P086","patch_number":86,"has_cfar_detection":false,"status":"processado_sem_deteccao","source_arquivo_id":923,"raster_width":2320,"raster_height":2320},"geometry":{"type":"Polygon","coordinates":[[[-48.29877956552939,2.0081367937714525],[-48.5027455923284,2.051393908689493],[-48.5459377968697,1.8434298277269188],[-48.34200890671077,1.8001143202740377],[-48.29877956552939,2.0081367937714525]]]}},{"type":"Feature","properties":{"patch_label":"P087","patch_number":87,"has_cfar_detection":false,"status":"processado_sem_deteccao","source_arquivo_id":923,"raster_width":2320,"raster_height":2320},"geometry":{"type":"Polygon","coordinates":[[[-48.47468681336855,2.0454453400563706],[-48.67866505577153,2.0886798394243624],[-48.72182285110986,1.8807681505343006],[-48.51788409397347,1.8374730279992697],[-48.47468681336855,2.0454453400563706]]]}},{"type":"Feature","properties":{"patch_label":"P088","patch_number":88,"has_cfar_detection":false,"status":"processado_sem_deteccao","source_arquivo_id":923,"raster_width":2320,"raster_height":2320},"geometry":{"type":"Polygon","coordinates":[[[-48.65060565280929,2.0827337542711275],[-48.85459051602614,2.125943407503967],[-48.89771654311946,1.918086454621606],[-48.69376899222058,1.87481360871458],[-48.65060565280929,2.0827337542711275]]]}},{"type":"Feature","properties":{"patch_label":"P089","patch_number":89,"has_cfar_detection":false,"status":"processado_sem_deteccao","source_arquivo_id":923,"raster_width":2320,"raster_height":2320},"geometry":{"type":"Polygon","coordinates":[[[-48.826529926731034,2.120001135709606],[-49.030525735758324,2.1631876917235036],[-49.0736155248396,1.955387220703199],[-48.86966149298335,1.9121353641025083],[-48.826529926731034,2.120001135709606]]]}},{"type":"Feature","properties":{"patch_label":"P090","patch_number":90,"has_cfar_detection":false,"status":"processado_sem_deteccao","source_arquivo_id":923,"raster_width":2320,"raster_height":2320},"geometry":{"type":"Polygon","coordinates":[[[-49.00246324470632,2.1572488551880107],[-49.20646990742436,2.2004099253828686],[-49.24952518600009,1.9926679261169837],[-49.045558471257145,1.9494392140351964],[-49.00246324470632,2.1572488551880107]]]}},{"type":"Feature","properties":{"patch_label":"P091","patch_number":91,"has_cfar_detection":false,"status":"processado_sem_deteccao","source_arquivo_id":923,"raster_width":2012,"raster_height":2320},"geometry":{"type":"Polygon","coordinates":[[[-49.17840659435762,2.194474185783999],[-49.35523739199849,2.2318659093891835],[-49.3982614176672,2.0241746679700485],[-49.22146795348803,1.9867227750778198],[-49.17840659435762,2.194474185783999]]]}},{"type":"Feature","properties":{"patch_label":"P092","patch_number":92,"has_cfar_detection":false,"status":"processado_sem_deteccao","source_arquivo_id":923,"raster_width":2160,"raster_height":2320},"geometry":{"type":"Polygon","coordinates":[[[-47.119156693565635,1.5697817471191224],[-47.30896951106339,1.6102282448197216],[-47.352393980292,1.4019539150948468],[-47.16260704917957,1.3614674225297068],[-47.119156693565635,1.5697817471191224]]]}},{"type":"Feature","properties":{"patch_label":"P093","patch_number":93,"has_cfar_detection":false,"status":"processado_sem_deteccao","source_arquivo_id":923,"raster_width":2320,"raster_height":2320},"geometry":{"type":"Polygon","coordinates":[[[-47.2809240940684,1.604253097728595],[-47.48480622544991,1.6476803912696356],[-47.52820869813808,1.439444878789405],[-47.324352018253464,1.3959727485562743],[-47.2809240940684,1.604253097728595]]]}},{"type":"Feature","properties":{"patch_label":"P094","patch_number":94,"has_cfar_detection":false,"status":"processado_sem_deteccao","source_arquivo_id":923,"raster_width":2320,"raster_height":2320},"geometry":{"type":"Polygon","coordinates":[[[-47.456759281042,1.6417083635647334],[-47.66065401987509,1.6851159403509552],[-47.704028475527586,1.4769213753315948],[-47.500165671630064,1.4334664549053342],[-47.456759281042,1.6417083635647334]]]}},{"type":"Feature","properties":{"patch_label":"P095","patch_number":95,"has_cfar_detection":false,"status":"processado_sem_deteccao","source_arquivo_id":923,"raster_width":2320,"raster_height":2320},"geometry":{"type":"Polygon","coordinates":[[[-47.63260565623713,1.6791458474737293],[-47.83650757795626,1.7225348573734547],[-47.87985492339432,1.514382994944184],[-47.675985073837325,1.4709446408717743],[-47.63260565623713,1.6791458474737293]]]}},{"type":"Feature","properties":{"patch_label":"P096","patch_number":96,"has_cfar_detection":false,"status":"processado_sem_deteccao","source_arquivo_id":923,"raster_width":2320,"raster_height":2320},"geometry":{"type":"Polygon","coordinates":[[[-47.80845860142769,1.7165682029487501],[-48.01236465332456,1.7599371109224156],[-48.05568855282876,1.5518300761540937],[-47.85180930718953,1.5084093187431835],[-47.80845860142769,1.7165682029487501]]]}},{"type":"Feature","properties":{"patch_label":"P097","patch_number":97,"has_cfar_detection":false,"status":"processado_sem_deteccao","source_arquivo_id":923,"raster_width":2320,"raster_height":2320},"geometry":{"type":"Polygon","coordinates":[[[-47.98431527170724,1.753972248776636],[-48.188233951242935,1.7973211985834996],[-48.231526831453955,1.5892610151811695],[-48.02764321529157,1.545857961239268],[-47.98431527170724,1.753972248776636]]]}},{"type":"Feature","properties":{"patch_label":"P098","patch_number":98,"has_cfar_detection":false,"status":"processado_sem_deteccao","source_arquivo_id":923,"raster_width":2320,"raster_height":2320},"geometry":{"type":"Polygon","coordinates":[[[-48.16018212938853,1.7913599219881966],[-48.364110348274565,1.8346888188716832],[-48.40737469051912,1.6266772142035435],[-48.20348066328861,1.5832921001487708],[-48.16018212938853,1.7913599219881966]]]}},{"type":"Feature","properties":{"patch_label":"P099","patch_number":99,"has_cfar_detection":false,"status":"processado_sem_deteccao","source_arquivo_id":923,"raster_width":2320,"raster_height":2320},"geometry":{"type":"Polygon","coordinates":[[[-48.336057778151506,1.8287293940562386],[-48.53999128564056,1.8720368492467767],[-48.58322592788951,1.664075993205607],[-48.37932598419704,1.6207099726613357],[-48.336057778151506,1.8287293940562386]]]}},{"type":"Feature","properties":{"patch_label":"P100","patch_number":100,"has_cfar_detection":true,"status":"com_deteccao_cfar","source_arquivo_id":923,"raster_width":2320,"raster_height":2320},"geometry":{"type":"Polygon","coordinates":[[[-48.511936788879325,1.8660811858376036],[-48.7158812047752,1.90936794036724],[-48.7590824905752,1.7014596779251516],[-48.55517706929733,1.65811206922419],[-48.511936788879325,1.8660811858376036]]]}},{"type":"Feature","properties":{"patch_label":"P101","patch_number":101,"has_cfar_detection":false,"status":"processado_sem_deteccao","source_arquivo_id":923,"raster_width":2320,"raster_height":2320},"geometry":{"type":"Polygon","coordinates":[[[-48.68782660811073,1.9034145651172458],[-48.891778724131,1.9466787051533783],[-48.93495085856278,1.7388252503583332],[-48.73103296403758,1.6954978177799962],[-48.68782660811073,1.9034145651172458]]]}},{"type":"Feature","properties":{"patch_label":"P102","patch_number":102,"has_cfar_detection":false,"status":"processado_sem_deteccao","source_arquivo_id":923,"raster_width":2320,"raster_height":2320},"geometry":{"type":"Polygon","coordinates":[[[-48.86372301208501,1.9407288317787568],[-49.067681996680996,1.9839717136931698],[-49.11082312203314,1.7761747005929351],[-48.906899970666906,1.7328665288393839],[-48.86372301208501,1.9407288317787568]]]}},{"type":"Feature","properties":{"patch_label":"P103","patch_number":103,"has_cfar_detection":false,"status":"processado_sem_deteccao","source_arquivo_id":923,"raster_width":2320,"raster_height":2320},"geometry":{"type":"Polygon","coordinates":[[[-49.03962416615522,1.9780249644231678],[-49.24359671905308,2.021244367181449],[-49.28670286354034,1.8135059073177906],[-49.082770741527106,1.7702188027659576],[-49.03962416615522,1.9780249644231678]]]}},{"type":"Feature","properties":{"patch_label":"P104","patch_number":104,"has_cfar_detection":false,"status":"processado_sem_deteccao","source_arquivo_id":923,"raster_width":2012,"raster_height":2320},"geometry":{"type":"Polygon","coordinates":[[[-49.2155387395855,2.0153005188672326],[-49.39233611105878,2.0527440838257576],[-49.43541729915461,1.845056672210292],[-49.25865009061306,1.8075525887240973],[-49.2155387395855,2.0153005188672326]]]}},{"type":"Feature","properties":{"patch_label":"P105","patch_number":105,"has_cfar_detection":false,"status":"processado_sem_deteccao","source_arquivo_id":923,"raster_width":2160,"raster_height":2320},"geometry":{"type":"Polygon","coordinates":[[[-47.15662630286655,1.390122718057186],[-47.34641702098971,1.4306037143156898],[-47.38986839896905,1.2223497306953055],[-47.20010357787673,1.1818286675410108],[-47.15662630286655,1.390122718057186]]]}},{"type":"Feature","properties":{"patch_label":"P106","patch_number":106,"has_cfar_detection":false,"status":"processado_sem_deteccao","source_arquivo_id":923,"raster_width":2320,"raster_height":2320},"geometry":{"type":"Polygon","coordinates":[[[-47.318374507464824,1.424623379809474],[-47.522235195330936,1.4680893040783194],[-47.56566211384449,1.2598744575911436],[-47.36182966431037,1.2163633417895772],[-47.318374507464824,1.424623379809474]]]}},{"type":"Feature","properties":{"patch_label":"P107","patch_number":107,"has_cfar_detection":false,"status":"processado_sem_deteccao","source_arquivo_id":923,"raster_width":2320,"raster_height":2320},"geometry":{"type":"Polygon","coordinates":[[[-47.49419162735027,1.4621117574879736],[-47.69805805283876,1.5055601682152888],[-47.741462973036654,1.2973863409778155],[-47.5376221694675,1.2538905165468552],[-47.49419162735027,1.4621117574879736]]]}},{"type":"Feature","properties":{"patch_label":"P108","patch_number":108,"has_cfar_detection":false,"status":"processado_sem_deteccao","source_arquivo_id":923,"raster_width":2320,"raster_height":2320},"geometry":{"type":"Polygon","coordinates":[[[-47.67001420933209,1.4995843513682963],[-47.87388788517838,1.5430158723885752],[-47.91726879247252,1.334885132262003],[-47.71342257637809,1.2914038475961627],[-47.67001420933209,1.4995843513682963]]]}},{"type":"Feature","properties":{"patch_label":"P109","patch_number":109,"has_cfar_detection":false,"status":"processado_sem_deteccao","source_arquivo_id":923,"raster_width":2320,"raster_height":2320},"geometry":{"type":"Polygon","coordinates":[[[-47.84584164616041,1.5370431660995791],[-48.04972571648112,1.5804567899042752],[-48.09307797319779,1.3723709348991078],[-47.88922684126687,1.3289053692446449],[-47.84584164616041,1.5370431660995791]]]}},{"type":"Feature","properties":{"patch_label":"P110","patch_number":110,"has_cfar_detection":false,"status":"processado_sem_deteccao","source_arquivo_id":923,"raster_width":2320,"raster_height":2320},"geometry":{"type":"Polygon","coordinates":[[[-48.02167967090094,1.5744856686738071],[-48.225567092284976,1.6178812701633682],[-48.26889647712098,1.4098424208832032],[-48.06503672255908,1.3663925723982584],[-48.02167967090094,1.5744856686738071]]]}},{"type":"Feature","properties":{"patch_label":"P111","patch_number":111,"has_cfar_detection":false,"status":"processado_sem_deteccao","source_arquivo_id":923,"raster_width":2320,"raster_height":2320},"geometry":{"type":"Polygon","coordinates":[[[-48.197520318836546,1.6119134058689744],[-48.40141911681909,1.6552907712693778],[-48.44471885874568,1.4473007092871097],[-48.240853864378565,1.4038669064250129],[-48.197520318836546,1.6119134058689744]]]}},{"type":"Feature","properties":{"patch_label":"P112","patch_number":112,"has_cfar_detection":false,"status":"processado_sem_deteccao","source_arquivo_id":923,"raster_width":2320,"raster_height":2320},"geometry":{"type":"Polygon","coordinates":[[[-48.37336970917681,1.6493246089919986],[-48.57727426782571,1.6926825523584146],[-48.62054625531553,1.4847434250806948],[-48.416674532960926,1.441326683604201],[-48.37336970917681,1.6493246089919986]]]}},{"type":"Feature","properties":{"patch_label":"P113","patch_number":113,"has_cfar_detection":false,"status":"processado_sem_deteccao","source_arquivo_id":923,"raster_width":2320,"raster_height":2320},"geometry":{"type":"Polygon","coordinates":[[[-48.54922473125274,1.6867197646954737],[-48.753133949785195,1.7300589861257467],[-48.796382099107156,1.5221726070764952],[-48.59250153341949,1.4787723709821592],[-48.54922473125274,1.6867197646954737]]]}},{"type":"Feature","properties":{"patch_label":"P114","patch_number":114,"has_cfar_detection":false,"status":"processado_sem_deteccao","source_arquivo_id":923,"raster_width":2320,"raster_height":2320},"geometry":{"type":"Polygon","coordinates":[[[-48.72508394001901,1.724098296379232],[-48.929007299752804,1.7674170192577612],[-48.97222152303547,1.559585498760094],[-48.76833582213831,1.5162034031454779],[-48.72508394001901,1.724098296379232]]]}},{"type":"Feature","properties":{"patch_label":"P115","patch_number":115,"has_cfar_detection":false,"status":"processado_sem_deteccao","source_arquivo_id":923,"raster_width":2320,"raster_height":2320},"geometry":{"type":"Polygon","coordinates":[[[-48.90095573886653,1.761459514883288],[-49.104883694537435,1.8047586706731122],[-49.14806797568319,1.5969838704177972],[-48.9441744889018,1.5536191345145918],[-48.90095573886653,1.761459514883288]]]}},{"type":"Feature","properties":{"patch_label":"P116","patch_number":116,"has_cfar_detection":false,"status":"processado_sem_deteccao","source_arquivo_id":923,"raster_width":2320,"raster_height":2320},"geometry":{"type":"Polygon","coordinates":[[[-49.07683070922875,1.7988040370062146],[-49.28076692342708,1.84208180895403],[-49.323924764873475,1.634365720129885],[-49.12001950432666,1.5910200400472745],[-49.07683070922875,1.7988040370062146]]]}},{"type":"Feature","properties":{"patch_label":"P117","patch_number":117,"has_cfar_detection":false,"status":"processado_sem_deteccao","source_arquivo_id":923,"raster_width":2012,"raster_height":2320},"geometry":{"type":"Polygon","coordinates":[[[-49.25271359753439,1.8361297930852842],[-49.42948624139016,1.873625567880713],[-49.47261073865036,1.6659604644035668],[-49.29587569316423,1.6284042281183122],[-49.25271359753439,1.8361297930852842]]]}},{"type":"Feature","properties":{"patch_label":"P118","patch_number":118,"has_cfar_detection":false,"status":"processado_sem_deteccao","source_arquivo_id":923,"raster_width":2160,"raster_height":1899},"geometry":{"type":"Polygon","coordinates":[[[-47.194123087193574,1.2104691480873915],[-47.38389037058823,1.250984624938436],[-47.419458703150184,1.080611492419747],[-47.22970607008055,1.0400627779399596],[-47.194123087193574,1.2104691480873915]]]}},{"type":"Feature","properties":{"patch_label":"P119","patch_number":119,"has_cfar_detection":false,"status":"processado_sem_deteccao","source_arquivo_id":923,"raster_width":2320,"raster_height":1899},"geometry":{"type":"Polygon","coordinates":[[[-47.355851270897254,1.2449990728195353],[-47.55968699981501,1.288503920461187],[-47.595237993006776,1.1181631037610547],[-47.39142177569716,1.0746209615503803],[-47.355851270897254,1.2449990728195353]]]}},{"type":"Feature","properties":{"patch_label":"P120","patch_number":120,"has_cfar_detection":false,"status":"processado_sem_deteccao","source_arquivo_id":923,"raster_width":2320,"raster_height":1899},"geometry":{"type":"Polygon","coordinates":[[[-47.53164676734393,1.2825208704032007],[-47.735490621198274,1.3260101114707297],[-47.771025179583575,1.1557031635222932],[-47.56719947467317,1.1121747524742243],[-47.53164676734393,1.2825208704032007]]]}},{"type":"Feature","properties":{"patch_label":"P121","patch_number":121,"has_cfar_detection":true,"status":"com_deteccao_cfar","source_arquivo_id":923,"raster_width":2320,"raster_height":1899},"geometry":{"type":"Polygon","coordinates":[[[-47.70744959217105,1.3200285404563754],[-47.91129934497313,1.3635029189764334],[-47.94681662287549,1.1932315735720789],[-47.74298791305118,1.1497161045670845],[-47.70744959217105,1.3200285404563754]]]}},{"type":"Feature","properties":{"patch_label":"P122","patch_number":122,"has_cfar_detection":false,"status":"processado_sem_deteccao","source_arquivo_id":923,"raster_width":2320,"raster_height":1899},"geometry":{"type":"Polygon","coordinates":[[[-47.88325696538248,1.3575241306255506],[-48.08711119171031,1.4009824950142546],[-48.12261260716119,1.2307481968996823],[-47.91877679212897,1.1872469861084374],[-47.88325696538248,1.3575241306255506]]]}},{"type":"Feature","properties":{"patch_label":"P123","patch_number":123,"has_cfar_detection":false,"status":"processado_sem_deteccao","source_arquivo_id":923,"raster_width":2320,"raster_height":1899},"geometry":{"type":"Polygon","coordinates":[[[-48.05906951837572,1.3950051404611747],[-48.262933082203816,1.4384474791614212],[-48.29841434817724,1.2682518659574786],[-48.094573448813044,1.2247648452153594],[-48.05906951837572,1.3950051404611747]]]}},{"type":"Feature","properties":{"patch_label":"P124","patch_number":124,"has_cfar_detection":false,"status":"processado_sem_deteccao","source_arquivo_id":923,"raster_width":2320,"raster_height":1899},"geometry":{"type":"Polygon","coordinates":[[[-48.2348900583202,1.4324730249501771],[-48.43875911096955,1.4758989916622314],[-48.47421867837238,1.3057436940196572],[-48.270373770523015,1.2622711034430874],[-48.2348900583202,1.4324730249501771]]]}},{"type":"Feature","properties":{"patch_label":"P125","patch_number":125,"has_cfar_detection":false,"status":"processado_sem_deteccao","source_arquivo_id":923,"raster_width":2320,"raster_height":1899},"geometry":{"type":"Polygon","coordinates":[[[-48.41071409740491,1.469926059507563],[-48.6145898574798,1.5133346586774066],[-48.65002949234548,1.3432213001615483],[-48.44617775663775,1.299764255543357],[-48.41071409740491,1.469926059507563]]]}},{"type":"Feature","properties":{"patch_label":"P126","patch_number":126,"has_cfar_detection":true,"status":"com_deteccao_cfar","source_arquivo_id":923,"raster_width":2320,"raster_height":1899},"geometry":{"type":"Polygon","coordinates":[[[-48.58654454970912,1.5073647456518176],[-48.79042976373536,1.5507565599124011],[-48.825845226820974,1.3806865207821515],[-48.6219876703863,1.3372445979307788],[-48.58654454970912,1.5073647456518176]]]}},{"type":"Feature","properties":{"patch_label":"P127","patch_number":127,"has_cfar_detection":false,"status":"processado_sem_deteccao","source_arquivo_id":923,"raster_width":2320,"raster_height":1899},"geometry":{"type":"Polygon","coordinates":[[[-48.76238282521576,1.544788531134495],[-48.96627231104528,1.5881618710173833],[-49.00166919082773,1.4181369351417246],[-48.79780222458401,1.3747115000274275],[-48.76238282521576,1.544788531134495]]]}},{"type":"Feature","properties":{"patch_label":"P128","patch_number":128,"has_cfar_detection":false,"status":"processado_sem_deteccao","source_arquivo_id":923,"raster_width":2320,"raster_height":1899},"geometry":{"type":"Polygon","coordinates":[[[-48.93822490055373,1.5821967334252987],[-49.142122820490016,1.625552422769237],[-49.177495563398246,1.4555740141076925],[-48.973624019575674,1.4121644991540707],[-48.93822490055373,1.5821967334252987]]]}},{"type":"Feature","properties":{"patch_label":"P129","patch_number":129,"has_cfar_detection":false,"status":"processado_sem_deteccao","source_arquivo_id":923,"raster_width":2320,"raster_height":1899},"geometry":{"type":"Polygon","coordinates":[[[-49.11407364924969,1.6195898620525182],[-49.31798397967653,1.662926157710362],[-49.353330721527854,1.4929960306641379],[-49.14945055641379,1.449603899149847],[-49.11407364924969,1.6195898620525182]]]}},{"type":"Feature","properties":{"patch_label":"P130","patch_number":130,"has_cfar_detection":false,"status":"processado_sem_deteccao","source_arquivo_id":923,"raster_width":2012,"raster_height":1899},"geometry":{"type":"Polygon","coordinates":[[[-49.28993416489036,1.6569659731782074],[-49.466673093499644,1.6945138515572187],[-49.50200115317928,1.524625673445523],[-49.325285327794674,1.4870280668343803],[-49.28993416489036,1.6569659731782074]]]}}]}
