{"type":"FeatureCollection","features":[{"type":"Feature","geometry":{"type":"MultiPolygon","coordinates":[[[[-53.17757963599996,-33.86942840312647],[-50.14033745199998,-35.82518895610422],[-49.72852863699995,-35.466327291107994],[-49.387527268999975,-35.09201228411207],[-49.09749928999997,-34.6905567001166],[-48.84958873299996,-34.23364050012202],[-48.35637774099997,-33.842192396126826],[-47.592196876999935,-33.07296221913673],[-46.896261768999985,-32.064040731150655],[-46.55910227199996,-31.317100189161632],[-45.92584574799997,-30.80199388316955],[-45.31768533699994,-30.05036993118159],[-45.03229686699996,-29.50373250719066],[-44.768974571999934,-28.66641521420523],[-44.635328365999946,-27.95787241321802],[-44.585452370999974,-27.358310328229237],[-43.46817337799995,-26.8934712082382],[-42.690675934999945,-26.4054489022478],[-41.23248568499997,-26.28565958225019],[-40.68318038299998,-26.13572463225316],[-40.16792614999997,-25.90926096625777],[-39.75709351099994,-25.654176827262962],[-39.388198907999936,-25.351880127269226],[-38.795923786999936,-24.671034698283634],[-38.268520140999954,-24.20981393129363],[-37.955123596999954,-23.82012607230221],[-37.64479753499995,-23.253771172314885],[-37.44931615699994,-22.62815765532919],[-37.16349505599994,-22.16398563834009],[-36.94591325699997,-21.633473252352704],[-36.65226465899997,-21.174873346363757],[-36.39175133899994,-20.588009912378173],[-35.99959477499993,-20.225191684387237],[-35.67293973899995,-19.809147352397705],[-35.41959653799995,-19.350033328409406],[-35.24479357599995,-18.85923571542213],[-35.148375991999956,-18.332340504435944],[-35.14246521299997,-17.780809514450624],[-35.24974432499994,-17.137108996468008],[-35.46148106299995,-16.553560227484063],[-35.402224254999965,-16.13827666549556],[-35.39507931499997,-15.736893013506796],[-35.532371920999935,-14.911966388530143],[-35.22745327399996,-14.549612387540567],[-34.89764295499998,-14.060199061554748],[-34.47104219899995,-13.297179720577075],[-34.09912545199995,-13.003348365585747],[-33.78178272599996,-12.676194622595471],[-32.675378071999944,-11.319859412636314],[-32.20433207599995,-10.605049541658179],[-31.82827819099998,-9.690911758686434],[-31.528956907999937,-8.679436995718067],[-31.42552347799994,-7.849289637744331],[-31.429818677999943,-7.079256587768875],[-30.81391332499993,-6.816257752777266],[-30.218809404999945,-6.413013797790219],[-29.754342588999975,-5.932216724805689],[-29.387707185999947,-5.3534876358244246],[-29.13436057999996,-4.663351100846819],[-29.036931633999984,-3.917656996871137],[-29.10475158399993,-3.1684498538956753],[-29.328448205999955,-2.4341436679197535],[-28.83098564199997,-2.393858153921075],[-28.345135942999946,-2.279159576924885],[-27.881859222999935,-2.092642143931014],[-27.45157980499994,-1.8385221999393468],[-27.06389084699998,-1.522609089949759],[-26.727381854999976,-1.1520767529619735],[-26.449680401999956,-0.7351086699756896],[-26.236969123999987,-0.2810728219906765],[-26.080365721999954,0.26542132899129833],[-26.018213848999945,0.8139547059732192],[-26.048373499999965,1.3819253249544956],[-26.168467693999958,1.9206214309367338],[-26.38242601099995,2.447093943919468],[-26.67199469299993,2.916130294904064],[-27.046445652999978,3.342524406890054],[-27.47370651799997,3.689605883878708],[-27.891855324999938,3.9326514898707807],[-28.324864396999942,4.107201901865052],[-28.778016283999936,4.219185315861404],[-29.242364349999946,4.266409090859886],[-29.70873683899998,4.248029938860465],[-30.167925915999945,4.164296856863213],[-30.610862144999945,4.016875822867983],[-31.02881226399995,3.8086783958748174],[-31.516323798999952,3.4584557558862516],[-31.943754079999962,3.013081577900842],[-32.27429511399998,2.510990687917346],[-32.51511889799997,1.941561592936092],[-32.64806743499997,1.337365991955972],[-32.66943784499995,0.7356009729757735],[-32.583565386999965,0.13968796799542713],[-32.38651859399994,-0.446433376985228],[-33.19263047199996,-0.5561959399816127],[-33.92156526399998,-0.5050600499832812],[-34.62875540199997,-0.6044168629799953],[-35.37277640899998,-0.8912769949705497],[-36.069999005999925,-1.3715342109547093],[-36.377669383999944,-1.0904189719639972],[-36.71783764199994,-0.8498862119719169],[-37.64443850799995,-0.2900809729903674],[-38.72214073799995,0.27101558899111916],[-39.182701065999936,0.414316513986398],[-39.75674553399995,0.511327672983176],[-40.45310391299995,0.5656259779814219],[-41.00022253599997,0.5276161049826477],[-41.816663750999965,0.6875272749773679],[-43.11940541299998,1.5566894009487162],[-43.56040978699997,1.7913259579410357],[-43.935281750999934,1.9295646599364475],[-46.04872940499997,2.5352794689165385],[-47.72238576799998,4.217079397861489],[-47.891464258999974,5.018964464835392],[-48.26377347199997,5.859408412808142],[-48.76704460299993,6.526123066786704],[-49.38844325399999,7.053767045769794],[-51.50362902099994,4.65983032384704],[-51.39130242399995,4.620942010848329],[-51.122211857999964,4.42651431585466],[-50.96122018199998,4.247407224860509],[-50.84933257099994,3.9424132728704464],[-50.84156905999998,3.3605252928894482],[-50.75608840199993,2.9635715679024535],[-50.288267109999936,2.3044260219241077],[-49.782018684999976,1.8438395579392997],[-47.61520650099993,-0.34521752098854974],[-47.245495800999954,-0.401877570986689],[-44.81210203099994,-1.0943967029638901],[-43.29780531499995,-2.1230904679299716],[-42.76665432899995,-2.3438470919227603],[-41.76822311699994,-2.526417390916726],[-41.498207725999976,-2.6916673839113323],[-41.037137746999974,-2.6900512139113517],[-40.66222616199997,-2.645491977912814],[-40.50216915999994,-2.582885176914917],[-39.85958239799993,-2.66231074491228],[-38.33894754499994,-3.544698290883372],[-38.21176979499996,-3.751538832876555],[-37.93754464299997,-4.048378565866867],[-37.77193556699996,-4.1880760978623215],[-37.636276222999975,-4.247940968860377],[-37.51288828199995,-4.42325790385467],[-37.20193887399995,-4.526884000851253],[-37.07667311199998,-4.719931665845024],[-36.89566410499998,-4.726839086844793],[-36.69650286999996,-4.851047056840738],[-36.44801956799995,-4.865539058840264],[-36.364423589999944,-4.719016625844999],[-36.207532793999974,-4.677608940846386],[-35.857379643999934,-4.864161069840314],[-35.39208541499994,-4.98161048783648],[-35.22853152799997,-5.1345192688315295],[-35.03781321599996,-5.5125949668192415],[-34.89516735299998,-6.091422074800586],[-34.78267300599999,-6.36700931179168],[-34.764174416999936,-6.566527444785303],[-34.619241199999976,-6.9235128097738645],[-34.57513248899994,-7.643679164750882],[-34.61514957499998,-7.998774510739593],[-34.70665295499998,-8.204040153733054],[-34.81105669199996,-8.630158987719632],[-35.00801288399998,-9.12748914070402],[-35.152353077999976,-9.341637484697348],[-35.53481744399994,-9.80285383268298],[-35.69139520099998,-9.9112634616796],[-35.93962448499997,-10.301233574667542],[-36.08133796499994,-10.41664958966398],[-36.24026366299995,-10.666418134656292],[-36.651714099999936,-10.841103135650933],[-36.83560385599998,-11.03021618064514],[-37.25143617499998,-11.673254731625601],[-37.42869818799994,-12.078442252613337],[-37.889322833999984,-12.766996969592787],[-38.23393208899995,-13.124484102582134],[-38.61277091899996,-13.276568569577654],[-38.779927767999936,-14.236110233549633],[-38.816914474999976,-14.849943227531957],[-38.77699529999995,-15.288783105519405],[-38.64379603599996,-15.873928792502932],[-38.712371589999975,-16.015485677498962],[-38.70092337799998,-16.197781100493916],[-38.772839800999975,-16.34791357848973],[-38.77640388699996,-16.47199157948628],[-38.877431639999934,-16.623216499482105],[-38.89075770499994,-16.722223563479357],[-38.82348854299994,-16.82749381747648],[-38.82043852399994,-16.951716297473087],[-39.00462111499996,-17.24288689346518],[-38.83001246199996,-17.358636019462015],[-38.78884317099994,-17.56551764845643],[-38.71234453699998,-17.714231972452453],[-38.56651141699996,-17.72978584645201],[-38.47142132099997,-17.800772183450132],[-38.42595761899998,-18.034408102443887],[-38.49581021599994,-18.157262194440577],[-38.62150100299993,-18.212182427439135],[-38.783742479999944,-18.196171298439577],[-38.892846401999975,-18.078710949442687],[-39.02133055999997,-18.09338185644228],[-39.17669412599997,-18.218380489438985],[-39.36141348799998,-18.1873799674398],[-39.420600682999975,-18.26998299843763],[-39.534090066999966,-18.694649816426452],[-39.47633119799997,-19.29168859741093],[-39.52974094699994,-19.53591385540469],[-39.64752963799998,-19.777688932398526],[-39.845774192999954,-19.89224456739561],[-39.95858978899997,-20.11548527938998],[-40.17491551499995,-20.770045221373675],[-40.80928969699994,-21.693900409351244],[-40.75931551899998,-21.961693322344868],[-40.81121140099997,-22.119636841341134],[-41.50950911999996,-22.546861533331118],[-41.59753465999995,-22.870318596323617],[-41.90409723199996,-23.195967838316168],[-43.18338333199995,-23.282956023314206],[-44.06810227099993,-23.416774056311183],[-45.129078291999974,-24.13497277029527],[-45.61707250499995,-24.297812658291665],[-46.079347336999945,-24.516587844286946],[-46.57243563299995,-24.670826763283646],[-47.858082588999935,-25.490828262266362],[-48.26648913699995,-26.240507124251074],[-48.351144665999975,-26.7529476612409],[-48.102469540999955,-27.281442021230717],[-48.20869187199998,-27.892145676219265],[-48.40122797699997,-28.45126024520903],[-48.65268036899993,-28.749819806203707],[-49.06800497399996,-28.977912334199694],[-49.45889363599997,-29.35205085019325],[-49.84713781599998,-29.91804493118374],[-50.14171038499995,-30.613811025172495],[-50.60462148599998,-31.257553075162537],[-51.095034286999976,-31.718248818155637],[-51.71238244999996,-32.09527544615018],[-51.909474123999985,-32.32724778014694],[-52.05024833999994,-32.38497951314609],[-52.139393107999986,-32.53283874314402],[-52.28280873099993,-32.96561536713813],[-52.46387800599995,-33.26960889713412],[-52.637912351999944,-33.45136195313173],[-53.17757963599996,-33.86942840312647]],[[-33.71183598999994,-3.6727845588791808],[-33.60475843399996,-3.795340640875135],[-33.62020090599998,-3.9660456398695665],[-33.74644473199993,-4.068949212866194],[-33.90820249199993,-4.053300774866737],[-34.01329498699994,-3.928695626870806],[-34.00042480899998,-3.7661767518761313],[-33.87613396499995,-3.6611035688795623],[-33.71183598999994,-3.6727845588791808]],[[-32.264692744999934,-3.6390717048802403],[-32.19944002299996,-3.7139358488778],[-32.172504851999975,-3.827222138874113],[-32.220009740999956,-3.982844712869035],[-32.401216000999966,-4.078699908865903],[-32.60549007299994,-4.029023432867524],[-32.67564793299994,-3.890843000872029],[-32.62758155999995,-3.743533507876819],[-32.445377091999944,-3.6141120768810846],[-32.264692744999934,-3.6390717048802403]],[[-29.31741213799996,1.11739244596321],[-29.18463910399992,1.038840297965772],[-29.146713736999967,0.8885323529707749],[-29.225456363999964,0.7552581239751168],[-29.374615920999926,0.7166169649764439],[-29.506934225999938,0.7959257039738236],[-29.543851714999956,0.9464284949688146],[-29.464708393999953,1.0795395469644316],[-29.31741213799996,1.11739244596321]]],[[[-28.139393079999934,-17.190512548466568],[-28.772006711999946,-17.122274844468425],[-29.72782253799994,-17.158792594467453],[-30.32478046599993,-17.27288576646432],[-30.893157038999956,-17.48336660545863],[-31.458820092999932,-17.813549298449747],[-31.952272230999938,-18.238074866438463],[-32.355555469999956,-18.743044348425162],[-32.653866696999955,-19.310946339410407],[-32.835712929999936,-19.92189580139484],[-32.89635000399994,-20.570783130378576],[-32.82618824899998,-21.20204234936307],[-32.62920233199998,-21.809327031348467],[-32.31104166099993,-22.370398586335213],[-31.872251942999984,-22.878583699323467],[-31.36328703699996,-23.278610903314313],[-30.764533741999973,-23.590678864307307],[-30.075243071999978,-23.79803104030267],[-29.35379406699997,-23.871997780301037],[-28.30292780199994,-23.803445662302533],[-27.567139336999958,-23.62323608530657],[-26.90637717499993,-23.31197157931359],[-26.33161391799996,-22.880971632323384],[-25.867257236999933,-22.349301567335697],[-25.525717481999948,-21.724594753350488],[-25.32801348699996,-21.013828480367696],[-25.29999771499996,-20.279660361385858],[-25.432968309999975,-19.57277232840374],[-25.728506885999934,-18.893844796421206],[-26.16964418699996,-18.291449311437027],[-26.74797064299997,-17.78293795545058],[-27.41079998799995,-17.414358887460537],[-28.139393079999934,-17.190512548466568]],[[-29.31741220899994,-20.284281465385764],[-29.142623678999936,-20.374850009383458],[-29.08210500099995,-20.518804939379883],[-29.156497677999937,-20.674758170376023],[-29.329432415999975,-20.72779686137469],[-29.48056041999996,-20.665473794376265],[-29.558291384999958,-20.501990592380313],[-29.49019935899997,-20.34344404338426],[-29.31741220899994,-20.284281465385764]],[[-28.764792312999926,-20.28366795938574],[-28.64411205099998,-20.400690578382825],[-28.644953733999955,-20.57261066637854],[-28.761233578999963,-20.682095478375828],[-28.93406344799996,-20.678245816375934],[-29.04527924699994,-20.56419679937874],[-29.047979602999927,-20.392460201383024],[-28.93219585999998,-20.282606999385752],[-28.764792312999926,-20.28366795938574]]]]},"properties":{"name":"ZEE","label":"Zona Econômica Exclusiva"}},{"type":"Feature","geometry":{"type":"MultiPolygon","coordinates":[[[[-50.14033745199998,-35.82518895610422],[-47.88765320399995,-37.245154277090684],[-47.64812893199997,-36.817516119094485],[-46.68048400999993,-36.284145021099604],[-46.30042980999997,-35.69481734910553],[-45.63297948799993,-35.06437659911238],[-45.184110833999966,-34.57006308411803],[-44.41126297599993,-33.45791855613169],[-44.01404565399997,-32.73005421214133],[-43.54132133999997,-32.25998635014783],[-43.05721426599996,-31.661651241156477],[-42.74242040199994,-31.20052037916339],[-42.47333245899995,-30.70065142017115],[-41.52086438699996,-30.150486338179935],[-40.42801398299997,-29.979031965182774],[-39.825663400999936,-30.820208290169273],[-39.779008804999926,-31.151310183164146],[-39.534505939999974,-31.92143146315271],[-39.16630333799998,-32.527911122144125],[-38.661415544999954,-33.00983936513754],[-38.06375653799996,-33.406207061132335],[-37.59303906499997,-33.5007208811311],[-36.095904788999974,-33.58528111113006],[-34.61612638699995,-33.53399471013068],[-33.704216884999944,-34.17410188412274],[-33.482103562999946,-34.62024306311746],[-33.119499159999975,-34.9993174901131],[-31.602398779999934,-35.97749417110268],[-30.56526557999996,-36.145361631100954],[-30.215901263999967,-36.24228003910002],[-29.785417034999966,-36.24254219409999],[-29.10588578499994,-36.05928366910182],[-28.778689657999962,-35.82133024510424],[-28.52741574299995,-35.537799543107205],[-28.381807773999977,-35.28065251511002],[-28.08380096199994,-34.5223432841186],[-27.21187051399994,-33.3772482791327],[-27.09924332099996,-33.109974398136224],[-27.04091494499994,-32.813845489140185],[-27.151319241999943,-30.660426575171776],[-27.262252975999953,-30.029846429181926],[-27.538684944999943,-28.696757080204634],[-27.66825853799997,-28.401094396209942],[-27.87019092899993,-28.112690115215184],[-28.224232429999972,-27.919582298218728],[-28.53473959499996,-27.855809566219893],[-29.591125070999965,-27.51935973122618],[-30.490793565999983,-27.075657769234656],[-30.828620508999958,-26.98352119523644],[-31.18157075599993,-26.989303394236348],[-31.548115106999944,-27.10863677923404],[-32.65369447699993,-27.26444348623102],[-33.11783011699998,-27.25744405123119],[-34.04998415899996,-27.442126671227673],[-34.30007401799998,-27.591582497224863],[-35.41505290199996,-27.67841958922324],[-35.49989948099994,-27.583237266225],[-36.45082999499994,-27.612700174224415],[-36.70435902899993,-27.44206516422767],[-37.05163642599996,-27.031265844235495],[-36.926857867999956,-26.94670335923715],[-36.39745051199998,-26.066454784254564],[-35.718607677999955,-25.276228852270826],[-35.36933712699994,-24.71743583828264],[-35.12781478599993,-24.215932119293456],[-34.256211313999984,-23.79316915430276],[-33.75577386499998,-22.911110425322672],[-33.574421454999936,-22.902873751322876],[-33.46770846199996,-22.10495589734146],[-32.40601516499993,-22.228429730338544],[-32.60838365699993,-21.855585653347394],[-32.75848703899993,-21.46196974335677],[-32.85437852399997,-21.053853485366723],[-32.89500291199994,-20.637682313376946],[-32.88018214899994,-20.219978103387344],[-32.80755148799994,-19.790748071398145],[-32.68465424599998,-19.389326029408423],[-32.502753723999945,-18.99046497941872],[-33.49277806999993,-19.324950639410055],[-34.292072221999945,-19.082813886416304],[-34.75918889299993,-18.246186112438245],[-34.70420899599998,-17.25921674846472],[-34.63929802299998,-16.965679528472705],[-34.66747418399996,-16.66680122948093],[-34.75215902499997,-16.447764064486943],[-34.88680479499993,-16.25347265949233],[-35.34276460799998,-15.898106033502271],[-35.334294443999966,-14.902600003530443],[-34.870169559999965,-14.01774540155595],[-35.22745327399996,-14.549612387540567],[-35.532371920999935,-14.911966388530143],[-35.39507931499997,-15.736893013506796],[-35.402224254999965,-16.13827666549556],[-35.46148106299995,-16.553560227484063],[-35.24557595599998,-17.15335650346757],[-35.13907748999998,-17.830903856449297],[-35.157575562999966,-18.41553733043374],[-35.28740889699998,-19.00424428741835],[-35.470075332999954,-19.456897464406673],[-35.72084149099993,-19.879448122395946],[-36.034810162999975,-20.26279508738628],[-36.39175133899994,-20.588009912378173],[-36.65226465899997,-21.174873346363757],[-36.94591325699997,-21.633473252352704],[-37.16349505599994,-22.16398563834009],[-37.44931615699994,-22.62815765532919],[-37.651437579999936,-23.269327926314524],[-37.97467473299997,-23.848321565301596],[-38.35333398099994,-24.297286682291734],[-38.795923786999936,-24.671034698283634],[-39.388198907999936,-25.351880127269226],[-39.75709351099994,-25.654176827262962],[-40.16792614999997,-25.90926096625777],[-40.68318038299998,-26.13572463225316],[-41.23248568499997,-26.28565958225019],[-42.690675934999945,-26.4054489022478],[-43.46817337799995,-26.8934712082382],[-44.585452370999974,-27.358310328229237],[-44.635328365999946,-27.95787241321802],[-44.768974571999934,-28.66641521420523],[-45.03229686699996,-29.503732506190666],[-45.31768533699994,-30.05036993118159],[-45.92584574799997,-30.80199388316955],[-46.55910227199996,-31.317100189161632],[-46.896261768999985,-32.064040731150655],[-47.592196876999935,-33.07296221913673],[-48.35637774099997,-33.842192396126826],[-48.84958873299996,-34.23364050012202],[-49.09749928999997,-34.6905567001166],[-49.387527268999975,-35.09201228411207],[-49.72852863699995,-35.466327291107994],[-50.14033745199998,-35.82518895610422]]],[[[-34.60780902199996,-0.5992042169802071],[-35.14163333099998,-0.13148056299563268],[-35.54536728199997,-0.6628687619781031],[-36.541802778999966,-0.6366694359789836],[-36.80043611199994,0.12366944399595103],[-37.493137726999976,0.7254655499760994],[-37.65598610899997,0.7302388919759643],[-38.482075056999975,1.2863018069576215],[-38.95972637299997,1.5209373659499177],[-39.22990937999998,2.4859964969181463],[-39.610047221999935,2.3318694369232023],[-40.49428727099996,2.739114752909824],[-40.918433326999946,2.255652776925708],[-42.29224340199994,3.148402473896397],[-42.981872220999946,3.883975003872337],[-43.741572219999966,4.3468499988572225],[-44.57328888799998,4.607238890848777],[-44.669893897999934,4.764715333843661],[-44.74964334199995,4.786269348842947],[-45.40777660699995,5.452724274821298],[-45.72917414299997,6.386641734791183],[-46.10085289999995,7.136312985767142],[-46.59330817099994,7.854301313744268],[-47.195944027999985,8.508789981723561],[-47.87641950799998,8.757636788715727],[-49.38844325399999,7.053767045769794],[-48.76704460299993,6.526123066786704],[-48.26377347199997,5.859408412808142],[-47.891464258999974,5.018964464835392],[-47.72238576799998,4.217079397861489],[-46.04872940499997,2.5352794689165385],[-43.93528174999995,1.9295646599364475],[-43.56040978699997,1.7913259579410357],[-43.11940541299998,1.5566894009487162],[-41.816663750999965,0.6875272749773679],[-41.00022253599997,0.5276161049826477],[-40.45310391299995,0.5656259779814219],[-39.75674553399995,0.511327672983176],[-39.182701065999936,0.414316513986398],[-38.72214073799995,0.27101558899111916],[-37.64443850799995,-0.2900809729903674],[-36.71783764199994,-0.8498862119719169],[-36.377669383999944,-1.0904189719639972],[-36.069999005999925,-1.3715342109547093],[-35.37277640899998,-0.8912769949705497],[-34.99375128999998,-0.7194402399762005],[-34.60780902199996,-0.5992042169802071]]]]},"properties":{"name":"PCE","label":"Plataforma Continental Estendida"}}]}