{
  "type": "FeatureCollection",
  "features": [
    {
      "type": "Feature",
      "geometry": {
        "type": "Polygon",
        "coordinates": [
          [
            [
              -36.976200220606536,
              -2.8176185301618566
            ],
            [
              -36.977518426765116,
              -2.817329748887757
            ],
            [
              -36.97769111108406,
              -2.8181364326281257
            ],
            [
              -36.97637290419167,
              -2.818425215426108
            ],
            [
              -36.976200220606536,
              -2.8176185301618566
            ]
          ]
        ]
      },
      "properties": {
        "lat": -2.817771912537116,
        "lon": -36.97678506436286,
        "area_px": 9,
        "min_sigma0_dB": 0.20999999344348907,
        "mean_sigma0_dB": 5.949999809265137,
        "max_sigma0_dB": 10.890000343322754,
        "threshold_cfar_dB": -0.81,
        "pixel_coords": {
          "row": 456,
          "col": 1944,
          "row_resampled": 152,
          "col_resampled": 648
        },
        "bbox_pixel_coords": {
          "row_min": 453,
          "row_max": 462,
          "col_min": 1938,
          "col_max": 1953
        },
        "global_pixel_coords": {
          "row": 14296,
          "col": 13784
        },
        "source_product": "S1D_IW_GRDH_1SDV_20260804T080800_20260804T080829_003973_007364_5A22",
        "source_arquivo_id": null,
        "patch_id": 97,
        "patch_name": "patch_0098_VV",
        "geotiff_name": "patch_0098_VV_sigma0_tc_preproc.tif",
        "polarization": "VV",
        "input_scale": "linear",
        "georef_method": "snap_geolocation_grid",
        "geocoding_method": "geolocation_grid",
        "geolocation_grid_status": "extracted",
        "snap_geolocation_grid_used": true,
        "raster_crs": "EPSG:4326",
        "raster_transform": [
          0.00010702421623068318,
          0.0,
          -37.04549779566387,
          0.0,
          -0.00010884950196760861,
          -2.7696820263828323,
          0.0,
          0.0,
          1.0
        ],
        "core_bbox_pixels": {
          "x0": 12000,
          "y0": 14000,
          "x1": 14000,
          "y1": 16000
        },
        "processing_bbox_pixels": {
          "x0": 11840,
          "y0": 13840,
          "x1": 14160,
          "y1": 16160
        },
        "core_bounds_lonlat": {
          "west": -37.02836186602893,
          "south": -3.0047867231104313,
          "east": -36.81433049136979,
          "north": -2.787102463387027
        },
        "processing_bounds_lonlat": {
          "west": -37.04549779566387,
          "south": -3.0222128709476843,
          "east": -36.797201614008685,
          "north": -2.7696820263828323,
          "source": "geotiff"
        },
        "halo_pixels": 160,
        "valid_bbox_fraction": 1.0,
        "artifact_aspect_ratio": 1.5,
        "land_mask_info": {
          "enabled": true,
          "applied": true,
          "status": "ok",
          "stage": "cfar_water_mask",
          "resampled_shape": [
            773,
            773
          ],
          "sample_shape": [
            384,
            384
          ],
          "sample_max_dim": 384,
          "available": true,
          "method": "natural_earth_land_point_mask",
          "bounds_lonlat": {
            "west": -37.02836186602893,
            "south": -3.0047867231104313,
            "east": -36.81433049136979,
            "north": -2.787102463387027
          },
          "mask_path": "/content/sismom_colab_work/sources/api/copernicus_meta_1-main/copernicus-platform/frontend/public/shapes/ne_10m_land/ne_10m_land.shp",
          "land_buffer_degrees": 0.0,
          "valid_geolocation_points": 147456,
          "land_points": 0,
          "water_points": 147456,
          "land_fraction": 0.0,
          "water_fraction": 1.0,
          "valid_pixels_before_land_mask": 597529,
          "valid_pixels_after_land_mask": 597529,
          "pixels_masked_by_land": 0,
          "valid_water_fraction": 1.0,
          "land_skip_threshold": 0.95,
          "min_water_fraction": 0.03,
          "skip_land_tiles": true,
          "skipped": false,
          "reason": "water_candidate",
          "message": "CFAR restrito aos pixels de água."
        },
        "land_fraction": 0.0,
        "water_fraction": 1.0,
        "valid_water_fraction": 1.0,
        "land_mask_method": "natural_earth_land_point_mask",
        "wave_age": null,
        "wave_age_class": null,
        "wave_age_factor": 1.35,
        "wave_age_status": "fallback",
        "era5_time": null,
        "era5_lon": null,
        "era5_lat": null,
        "u10": null,
        "peak_wave_period": null,
        "friction_velocity": null,
        "phase_speed": null,
        "patch_label": "P098",
        "id": 1,
        "source": "cfar",
        "detection_method": "cfar"
      }
    },
    {
      "type": "Feature",
      "geometry": {
        "type": "Polygon",
        "coordinates": [
          [
            [
              -37.68076546832576,
              -2.9768613867256417
            ],
            [
              -37.682083564619354,
              -2.97657122872807
            ],
            [
              -37.68225674987452,
              -2.977377090260148
            ],
            [
              -37.6809386530523,
              -2.9776672500101844
            ],
            [
              -37.68076546832576,
              -2.9768613867256417
            ]
          ]
        ]
      },
      "properties": {
        "lat": -2.9772825652489843,
        "lon": -37.681408163468525,
        "area_px": 9,
        "min_sigma0_dB": 3.619999885559082,
        "mean_sigma0_dB": 8.699999809265137,
        "max_sigma0_dB": 23.079999923706055,
        "threshold_cfar_dB": 3.44,
        "pixel_coords": {
          "row": 1806,
          "col": 1230,
          "row_resampled": 602,
          "col_resampled": 410
        },
        "bbox_pixel_coords": {
          "row_min": 1800,
          "row_max": 1809,
          "col_min": 1224,
          "col_max": 1239
        },
        "global_pixel_coords": {
          "row": 17646,
          "col": 21070
        },
        "source_product": "S1D_IW_GRDH_1SDV_20260804T080800_20260804T080829_003973_007364_5A22",
        "source_arquivo_id": null,
        "patch_id": 114,
        "patch_name": "patch_0115_VV",
        "geotiff_name": "patch_0115_VV_sigma0_tc_preproc.tif",
        "polarization": "VV",
        "input_scale": "linear",
        "georef_method": "snap_geolocation_grid",
        "geocoding_method": "geolocation_grid",
        "geolocation_grid_status": "extracted",
        "snap_geolocation_grid_used": true,
        "raster_crs": "EPSG:4326",
        "raster_transform": [
          0.00010706920991709965,
          0.0,
          -37.78698258700306,
          0.0,
          -0.00010881972328209556,
          -2.7945301193215157,
          0.0,
          0.0,
          1.0
        ],
        "core_bbox_pixels": {
          "x0": 20000,
          "y0": 16000,
          "x1": 22000,
          "y1": 18000
        },
        "processing_bbox_pixels": {
          "x0": 19840,
          "y0": 15840,
          "x1": 22160,
          "y1": 18160
        },
        "core_bounds_lonlat": {
          "west": -37.76984055892858,
          "south": -3.029576539379726,
          "east": -37.55571826084594,
          "north": -2.8119472175404656
        },
        "processing_bounds_lonlat": {
          "west": -37.78698258700306,
          "south": -3.0469918773359774,
          "east": -37.53858201999539,
          "north": -2.7945301193215157,
          "source": "geotiff"
        },
        "halo_pixels": 160,
        "valid_bbox_fraction": 1.0,
        "artifact_aspect_ratio": 1.5,
        "land_mask_info": {
          "enabled": true,
          "applied": true,
          "status": "ok",
          "stage": "cfar_water_mask",
          "resampled_shape": [
            773,
            773
          ],
          "sample_shape": [
            384,
            384
          ],
          "sample_max_dim": 384,
          "available": true,
          "method": "natural_earth_land_point_mask",
          "bounds_lonlat": {
            "west": -37.76984055892858,
            "south": -3.029576539379726,
            "east": -37.55571826084594,
            "north": -2.8119472175404656
          },
          "mask_path": "/content/sismom_colab_work/sources/api/copernicus_meta_1-main/copernicus-platform/frontend/public/shapes/ne_10m_land/ne_10m_land.shp",
          "land_buffer_degrees": 0.0,
          "valid_geolocation_points": 147456,
          "land_points": 0,
          "water_points": 147456,
          "land_fraction": 0.0,
          "water_fraction": 1.0,
          "valid_pixels_before_land_mask": 597529,
          "valid_pixels_after_land_mask": 597529,
          "pixels_masked_by_land": 0,
          "valid_water_fraction": 1.0,
          "land_skip_threshold": 0.95,
          "min_water_fraction": 0.03,
          "skip_land_tiles": true,
          "skipped": false,
          "reason": "water_candidate",
          "message": "CFAR restrito aos pixels de água."
        },
        "land_fraction": 0.0,
        "water_fraction": 1.0,
        "valid_water_fraction": 1.0,
        "land_mask_method": "natural_earth_land_point_mask",
        "wave_age": null,
        "wave_age_class": null,
        "wave_age_factor": 1.35,
        "wave_age_status": "fallback",
        "era5_time": null,
        "era5_lon": null,
        "era5_lat": null,
        "u10": null,
        "peak_wave_period": null,
        "friction_velocity": null,
        "phase_speed": null,
        "patch_label": "P115",
        "id": 2,
        "source": "cfar",
        "detection_method": "cfar"
      }
    },
    {
      "type": "Feature",
      "geometry": {
        "type": "Polygon",
        "coordinates": [
          [
            [
              -37.30456576249291,
              -3.1396970826766686
            ],
            [
              -37.30641149140869,
              -3.139291395537267
            ],
            [
              -37.3065846863731,
              -3.14009731233684
            ],
            [
              -37.30473895675718,
              -3.140503001751906
            ],
            [
              -37.30456576249291,
              -3.1396970826766686
            ]
          ]
        ]
      },
      "properties": {
        "lat": -3.1400025399707254,
        "lon": -37.30573592791545,
        "area_px": 13,
        "min_sigma0_dB": 0.05000000074505806,
        "mean_sigma0_dB": 5.800000190734863,
        "max_sigma0_dB": 16.799999237060547,
        "threshold_cfar_dB": -0.05,
        "pixel_coords": {
          "row": 660,
          "col": 768,
          "row_resampled": 220,
          "col_resampled": 256
        },
        "bbox_pixel_coords": {
          "row_min": 654,
          "row_max": 663,
          "col_min": 756,
          "col_max": 777
        },
        "global_pixel_coords": {
          "row": 18500,
          "col": 16608
        },
        "source_product": "S1D_IW_GRDH_1SDV_20260804T080800_20260804T080829_003973_007364_5A22",
        "source_arquivo_id": null,
        "patch_id": 125,
        "patch_name": "patch_0126_VV",
        "geotiff_name": "patch_0126_VV_sigma0_tc_preproc.tif",
        "polarization": "VV",
        "input_scale": "linear",
        "georef_method": "snap_geolocation_grid",
        "geocoding_method": "geolocation_grid",
        "geolocation_grid_status": "extracted",
        "snap_geolocation_grid_used": true,
        "raster_crs": "EPSG:4326",
        "raster_transform": [
          0.00010356331950383986,
          0.0,
          -37.46580276944514,
          0.0,
          -0.00011314764170309129,
          -3.050936065219154,
          0.0,
          0.0,
          1.0
        ],
        "core_bbox_pixels": {
          "x0": 16000,
          "y0": 18000,
          "x1": 18000,
          "y1": 19735
        },
        "processing_bbox_pixels": {
          "x0": 15840,
          "y0": 17840,
          "x1": 18160,
          "y1": 19735
        },
        "core_bounds_lonlat": {
          "west": -37.451740959665834,
          "south": -3.2622575077671625,
          "east": -37.24267684199927,
          "north": -3.068353350170533
        },
        "processing_bounds_lonlat": {
          "west": -37.46580276944514,
          "south": -3.265350846246512,
          "east": -37.22553586819623,
          "north": -3.050936065219154,
          "source": "geotiff"
        },
        "halo_pixels": 160,
        "valid_bbox_fraction": 1.0,
        "artifact_aspect_ratio": 2.0,
        "land_mask_info": {
          "enabled": true,
          "applied": true,
          "status": "ok",
          "stage": "cfar_water_mask",
          "resampled_shape": [
            632,
            773
          ],
          "sample_shape": [
            314,
            384
          ],
          "sample_max_dim": 384,
          "available": true,
          "method": "natural_earth_land_point_mask",
          "bounds_lonlat": {
            "west": -37.451740959665834,
            "south": -3.2622575077671625,
            "east": -37.24267684199927,
            "north": -3.068353350170533
          },
          "mask_path": "/content/sismom_colab_work/sources/api/copernicus_meta_1-main/copernicus-platform/frontend/public/shapes/ne_10m_land/ne_10m_land.shp",
          "land_buffer_degrees": 0.0,
          "valid_geolocation_points": 120576,
          "land_points": 0,
          "water_points": 120576,
          "land_fraction": 0.0,
          "water_fraction": 1.0,
          "valid_pixels_before_land_mask": 488536,
          "valid_pixels_after_land_mask": 488536,
          "pixels_masked_by_land": 0,
          "valid_water_fraction": 1.0,
          "land_skip_threshold": 0.95,
          "min_water_fraction": 0.03,
          "skip_land_tiles": true,
          "skipped": false,
          "reason": "water_candidate",
          "message": "CFAR restrito aos pixels de água."
        },
        "land_fraction": 0.0,
        "water_fraction": 1.0,
        "valid_water_fraction": 1.0,
        "land_mask_method": "natural_earth_land_point_mask",
        "wave_age": null,
        "wave_age_class": null,
        "wave_age_factor": 1.35,
        "wave_age_status": "fallback",
        "era5_time": null,
        "era5_lon": null,
        "era5_lat": null,
        "u10": null,
        "peak_wave_period": null,
        "friction_velocity": null,
        "phase_speed": null,
        "patch_label": "P126",
        "id": 3,
        "source": "cfar",
        "detection_method": "cfar"
      }
    },
    {
      "type": "Feature",
      "geometry": {
        "type": "Polygon",
        "coordinates": [
          [
            [
              -37.31389327652775,
              -3.1818155419618233
            ],
            [
              -37.31389327652775,
              -3.1818155419618233
            ],
            [
              -37.31400873943799,
              -3.182352821128585
            ],
            [
              -37.31400873943799,
              -3.182352821128585
            ],
            [
              -37.31389327652775,
              -3.1818155419618233
            ]
          ]
        ]
      },
      "properties": {
        "lat": -3.1820841815452043,
        "lon": -37.313951007982865,
        "area_px": 3,
        "min_sigma0_dB": -7.71999979019165,
        "mean_sigma0_dB": -6.0,
        "max_sigma0_dB": -3.8499999046325684,
        "threshold_cfar_dB": -9.06,
        "pixel_coords": {
          "row": 1128,
          "col": 759,
          "row_resampled": 376,
          "col_resampled": 253
        },
        "bbox_pixel_coords": {
          "row_min": 1125,
          "row_max": 1131,
          "col_min": 759,
          "col_max": 759
        },
        "global_pixel_coords": {
          "row": 18968,
          "col": 16599
        },
        "source_product": "S1D_IW_GRDH_1SDV_20260804T080800_20260804T080829_003973_007364_5A22",
        "source_arquivo_id": null,
        "patch_id": 125,
        "patch_name": "patch_0126_VV",
        "geotiff_name": "patch_0126_VV_sigma0_tc_preproc.tif",
        "polarization": "VV",
        "input_scale": "linear",
        "georef_method": "snap_geolocation_grid",
        "geocoding_method": "geolocation_grid",
        "geolocation_grid_status": "extracted",
        "snap_geolocation_grid_used": true,
        "raster_crs": "EPSG:4326",
        "raster_transform": [
          0.00010356331950383986,
          0.0,
          -37.46580276944514,
          0.0,
          -0.00011314764170309129,
          -3.050936065219154,
          0.0,
          0.0,
          1.0
        ],
        "core_bbox_pixels": {
          "x0": 16000,
          "y0": 18000,
          "x1": 18000,
          "y1": 19735
        },
        "processing_bbox_pixels": {
          "x0": 15840,
          "y0": 17840,
          "x1": 18160,
          "y1": 19735
        },
        "core_bounds_lonlat": {
          "west": -37.451740959665834,
          "south": -3.2622575077671625,
          "east": -37.24267684199927,
          "north": -3.068353350170533
        },
        "processing_bounds_lonlat": {
          "west": -37.46580276944514,
          "south": -3.265350846246512,
          "east": -37.22553586819623,
          "north": -3.050936065219154,
          "source": "geotiff"
        },
        "halo_pixels": 160,
        "valid_bbox_fraction": 1.0,
        "artifact_aspect_ratio": 3.0,
        "land_mask_info": {
          "enabled": true,
          "applied": true,
          "status": "ok",
          "stage": "cfar_water_mask",
          "resampled_shape": [
            632,
            773
          ],
          "sample_shape": [
            314,
            384
          ],
          "sample_max_dim": 384,
          "available": true,
          "method": "natural_earth_land_point_mask",
          "bounds_lonlat": {
            "west": -37.451740959665834,
            "south": -3.2622575077671625,
            "east": -37.24267684199927,
            "north": -3.068353350170533
          },
          "mask_path": "/content/sismom_colab_work/sources/api/copernicus_meta_1-main/copernicus-platform/frontend/public/shapes/ne_10m_land/ne_10m_land.shp",
          "land_buffer_degrees": 0.0,
          "valid_geolocation_points": 120576,
          "land_points": 0,
          "water_points": 120576,
          "land_fraction": 0.0,
          "water_fraction": 1.0,
          "valid_pixels_before_land_mask": 488536,
          "valid_pixels_after_land_mask": 488536,
          "pixels_masked_by_land": 0,
          "valid_water_fraction": 1.0,
          "land_skip_threshold": 0.95,
          "min_water_fraction": 0.03,
          "skip_land_tiles": true,
          "skipped": false,
          "reason": "water_candidate",
          "message": "CFAR restrito aos pixels de água."
        },
        "land_fraction": 0.0,
        "water_fraction": 1.0,
        "valid_water_fraction": 1.0,
        "land_mask_method": "natural_earth_land_point_mask",
        "wave_age": null,
        "wave_age_class": null,
        "wave_age_factor": 1.35,
        "wave_age_status": "fallback",
        "era5_time": null,
        "era5_lon": null,
        "era5_lat": null,
        "u10": null,
        "peak_wave_period": null,
        "friction_velocity": null,
        "phase_speed": null,
        "patch_label": "P126",
        "id": 4,
        "source": "cfar",
        "detection_method": "cfar"
      }
    }
  ]
}