{
  "type": "FeatureCollection",
  "features": [
    {
      "type": "Feature",
      "geometry": {
        "type": "Polygon",
        "coordinates": [
          [
            [
              -37.305480579598516,
              -3.140527546338491
            ],
            [
              -37.304799277713975,
              -3.140527546338491
            ],
            [
              -37.304799277713975,
              -3.139927085425752
            ],
            [
              -37.305480579598516,
              -3.139927085425752
            ],
            [
              -37.305480579598516,
              -3.140527546338491
            ]
          ]
        ]
      },
      "properties": {
        "detection_method": "yolo8",
        "confidence": 0.8812912702560425,
        "class": "ship-1",
        "bbox_pixel": [
          16598.736877441406,
          18497.337074279785,
          16604.486694335938,
          18505.153923034668
        ],
        "bbox_geo": [
          -37.305480579598516,
          -3.140527546338491,
          -37.304799277713975,
          -3.139927085425752
        ],
        "model": "SAR-MULTI-1280p",
        "class_id": 0,
        "class_name": "ship-1",
        "tile_id": 897,
        "id": 1,
        "source": "yolo",
        "centroid_lon": -37.3051399286128,
        "centroid_lat": -3.140227316026608,
        "score": 0.8812912702560425,
        "patch_id": 125,
        "patch_label": "P126"
      }
    },
    {
      "type": "Feature",
      "geometry": {
        "type": "Polygon",
        "coordinates": [
          [
            [
              -36.97834464873327,
              -2.818180930217784
            ],
            [
              -36.976181033595516,
              -2.818180930217784
            ],
            [
              -36.976181033595516,
              -2.8175288984658287
            ],
            [
              -36.97834464873327,
              -2.8175288984658287
            ],
            [
              -36.97834464873327,
              -2.818180930217784
            ]
          ]
        ]
      },
      "properties": {
        "detection_method": "yolo8",
        "confidence": 0.8619951009750366,
        "class": "ship-1",
        "bbox_pixel": [
          13778.951232910156,
          14292.45864868164,
          13800.713195800781,
          14304.927520751953
        ],
        "bbox_geo": [
          -36.97834464873327,
          -2.818180930217784,
          -36.976181033595516,
          -2.8175288984658287
        ],
        "model": "SAR-MULTI-1280p",
        "class_id": 0,
        "class_name": "ship-1",
        "tile_id": 683,
        "id": 2,
        "source": "yolo",
        "centroid_lon": -36.97726284081357,
        "centroid_lat": -2.8178549150868157,
        "score": 0.8619951009750366,
        "patch_id": 84,
        "patch_label": "P085"
      }
    },
    {
      "type": "Feature",
      "geometry": {
        "type": "Polygon",
        "coordinates": [
          [
            [
              -37.68268521362793,
              -2.9776578748000286
            ],
            [
              -37.680677595231266,
              -2.9776578748000286
            ],
            [
              -37.680677595231266,
              -2.9768807305921463
            ],
            [
              -37.68268521362793,
              -2.9768807305921463
            ],
            [
              -37.68268521362793,
              -2.9776578748000286
            ]
          ]
        ]
      },
      "properties": {
        "detection_method": "yolo8",
        "confidence": 0.7092105150222778,
        "class": "ship-1",
        "bbox_pixel": [
          21063.36587524414,
          17640.368041992188,
          21083.351989746094,
          17653.00421142578
        ],
        "bbox_geo": [
          -37.68268521362793,
          -2.9776578748000286,
          -37.680677595231266,
          -2.9768807305921463
        ],
        "model": "SAR-MULTI-1280p",
        "class_id": 0,
        "class_name": "ship-1",
        "tile_id": 833,
        "id": 3,
        "source": "yolo",
        "centroid_lon": -37.68167178278139,
        "centroid_lat": -2.977224533415808,
        "score": 0.7092105150222778,
        "patch_id": 114,
        "patch_label": "P115"
      }
    },
    {
      "type": "Feature",
      "geometry": {
        "type": "Polygon",
        "coordinates": [
          [
            [
              -37.681347873815064,
              -2.977858495015914
            ],
            [
              -37.680754566205536,
              -2.977858495015914
            ],
            [
              -37.680754566205536,
              -2.977238892103868
            ],
            [
              -37.681347873815064,
              -2.977238892103868
            ],
            [
              -37.681347873815064,
              -2.977858495015914
            ]
          ]
        ]
      },
      "properties": {
        "detection_method": "yolo8",
        "confidence": 0.41965675354003906,
        "class": "ship-1",
        "bbox_pixel": [
          21063.666717529297,
          17644.680297851562,
          21068.907928466797,
          17652.02862548828
        ],
        "bbox_geo": [
          -37.681347873815064,
          -2.977858495015914,
          -37.680754566205536,
          -2.977238892103868
        ],
        "model": "SAR-MULTI-1280p",
        "class_id": 0,
        "class_name": "ship-1",
        "tile_id": 833,
        "id": 4,
        "source": "yolo",
        "centroid_lon": -37.68109515652931,
        "centroid_lat": -2.9775390217045254,
        "score": 0.41965675354003906,
        "patch_id": 114,
        "patch_label": "P115"
      }
    }
  ]
}