{
  "type": "FeatureCollection",
  "features": [
    {
      "type": "Feature",
      "geometry": {
        "type": "Polygon",
        "coordinates": [
          [
            [
              -38.12707902352036,
              -3.5705985615437346
            ],
            [
              -35.49284591067847,
              -3.5705985615437346
            ],
            [
              -35.49284591067847,
              -1.3088319439253444
            ],
            [
              -38.12707902352036,
              -1.3088319439253444
            ],
            [
              -38.12707902352036,
              -3.5705985615437346
            ]
          ]
        ]
      },
      "properties": {
        "product_id": "S1D_IW_GRDH_1SDV_20260804T080800_20260804T080829_003973_007364_5A22"
      }
    }
  ]
}